{"type":"FeatureCollection", "features": [
{"type":"Feature","geometry":{"type":"MultiPolygon","coordinates":[[[[-43.17068,-22.90357],[-43.17186,-22.90624],[-43.17266,-22.90652],[-43.17845,-22.90638],[-43.17897,-22.90593],[-43.18605,-22.90791],[-43.19038,-22.90931],[-43.193,-22.91081],[-43.19362,-22.91144],[-43.18932,-22.9147],[-43.19009,-22.91578],[-43.18784,-22.91695],[-43.18747,-22.91506],[-43.18577,-22.91502],[-43.18021,-22.91355],[-43.1777,-22.91783],[-43.17717,-22.91787],[-43.1764,-22.91414],[-43.17423,-22.91371],[-43.17207,-22.91152],[-43.16828,-22.91074],[-43.16851,-22.91435],[-43.16773,-22.9145],[-43.16266,-22.91716],[-43.16043,-22.9165],[-43.15783,-22.91259],[-43.16107,-22.91274],[-43.16149,-22.90542],[-43.16272,-22.90427],[-43.16918,-22.90461],[-43.17068,-22.90357]]],[[[-43.11765,-22.75375],[-43.11922,-22.75448],[-43.12036,-22.75623],[-43.12044,-22.75801],[-43.11855,-22.7586],[-43.11732,-22.75708],[-43.11483,-22.75645],[-43.11765,-22.75375]]],[[[-43.10565,-22.74886],[-43.10727,-22.74978],[-43.10901,-22.74911],[-43.10899,-22.75155],[-43.11039,-22.7529],[-43.11192,-22.75297],[-43.11266,-22.75458],[-43.11039,-22.75745],[-43.10974,-22.75933],[-43.11108,-22.76059],[-43.11036,-22.76254],[-43.11019,-22.76517],[-43.11151,-22.76671],[-43.11342,-22.76667],[-43.11432,-22.76757],[-43.11142,-22.76898],[-43.10814,-22.76986],[-43.1064,-22.76775],[-43.10268,-22.7649],[-43.1027,-22.7634],[-43.10469,-22.7628],[-43.10614,-22.76377],[-43.10722,-22.76156],[-43.10848,-22.75769],[-43.10708,-22.75501],[-43.10504,-22.7545],[-43.10178,-22.75203],[-43.10263,-22.75059],[-43.10421,-22.75095],[-43.10565,-22.74886]]],[[[-43.1269,-22.74611],[-43.1288,-22.74659],[-43.12823,-22.7484],[-43.12646,-22.74745],[-43.1269,-22.74611]]]]},"properties":{"cisp":5,"aisp":5,"st_area_sh":0.00040769104,"st_length_":0.32088173377,"areakm2":4.6}},
{"type":"Feature","geometry":{"type":"MultiPolygon","coordinates":[[[[-43.19538,-22.97712],[-43.20074,-22.97915],[-43.20633,-22.98072],[-43.20905,-22.98081],[-43.21492,-22.98047],[-43.21815,-22.97884],[-43.21975,-22.97695],[-43.22453,-22.97797],[-43.22496,-22.97654],[-43.22671,-22.97778],[-43.22672,-22.97968],[-43.22882,-22.98045],[-43.2314,-22.98044],[-43.23444,-22.98372],[-43.23698,-22.98529],[-43.2375,-22.98845],[-43.23684,-22.98951],[-43.23357,-22.98838],[-43.23133,-22.98832],[-43.22955,-22.9896],[-43.22699,-22.98963],[-43.22681,-22.98898],[-43.22049,-22.98756],[-43.21384,-22.9871],[-43.20443,-22.98717],[-43.19878,-22.98756],[-43.19312,-22.98851],[-43.19141,-22.98942],[-43.1884,-22.98785],[-43.18885,-22.98651],[-43.19162,-22.98724],[-43.19406,-22.98413],[-43.19742,-22.98194],[-43.19702,-22.97913],[-43.19551,-22.97874],[-43.19538,-22.97712]]],[[[-43.19079,-23.07199],[-43.19061,-23.06915],[-43.19218,-23.0669],[-43.19409,-23.06652],[-43.19778,-23.06827],[-43.19844,-23.07088],[-43.19632,-23.07219],[-43.19496,-23.07214],[-43.19364,-23.07318],[-43.19195,-23.07349],[-43.19079,-23.07199]]],[[[-43.14134,-23.06463],[-43.14176,-23.06322],[-43.1466,-23.0594],[-43.14817,-23.05997],[-43.14723,-23.06213],[-43.1475,-23.06322],[-43.14573,-23.0653],[-43.14458,-23.06492],[-43.14161,-23.06534],[-43.14134,-23.06463]]],[[[-43.19699,-23.03505],[-43.19784,-23.03459],[-43.20107,-23.03686],[-43.20469,-23.03798],[-43.20802,-23.03833],[-43.20865,-23.04006],[-43.20618,-23.04025],[-43.20338,-23.0382],[-43.20056,-23.03777],[-43.19883,-23.03685],[-43.19699,-23.03505]]],[[[-43.20141,-23.02596],[-43.20291,-23.02559],[-43.2062,-23.02587],[-43.20576,-23.02715],[-43.20228,-23.0276],[-43.20141,-23.02596]]],[[[-43.19064,-23.02694],[-43.19107,-23.0256],[-43.19242,-23.02548],[-43.19509,-23.02676],[-43.19474,-23.02773],[-43.19227,-23.02781],[-43.19064,-23.02694]]]]},"properties":{"cisp":14,"aisp":23,"st_area_sh":0.00046132934,"st_length_":0.27727694473,"areakm2":5.2}},
{"type":"Feature","geometry":{"type":"Polygon","coordinates":[[[-43.19538,-22.97712],[-43.19792,-22.96908],[-43.19693,-22.96662],[-43.19726,-22.96274],[-43.20051,-22.96188],[-43.20078,-22.96065],[-43.20258,-22.96029],[-43.20511,-22.95654],[-43.20414,-22.9558],[-43.2056,-22.95682],[-43.20843,-22.95639],[-43.21246,-22.95774],[-43.21533,-22.95928],[-43.21945,-22.95978],[-43.22142,-22.95845],[-43.22334,-22.95887],[-43.22769,-22.96131],[-43.22779,-22.96231],[-43.23284,-22.96469],[-43.23804,-22.96443],[-43.24125,-22.96645],[-43.24263,-22.96871],[-43.24146,-22.96936],[-43.23893,-22.96884],[-43.23874,-22.97048],[-43.2375,-22.97204],[-43.23371,-22.97088],[-43.22812,-22.96971],[-43.22909,-22.97191],[-43.23039,-22.97228],[-43.23226,-22.97448],[-43.23412,-22.97493],[-43.23675,-22.97453],[-43.23902,-22.97657],[-43.23765,-22.97974],[-43.23797,-22.98033],[-43.24266,-22.97911],[-43.24387,-22.97527],[-43.24516,-22.97448],[-43.24816,-22.97701],[-43.24684,-22.97874],[-43.24343,-22.98076],[-43.24147,-22.98087],[-43.24225,-22.98234],[-43.24792,-22.98015],[-43.24983,-22.979],[-43.25124,-22.97891],[-43.25787,-22.97958],[-43.26377,-22.98212],[-43.26628,-22.98253],[-43.27293,-22.98175],[-43.27646,-22.98227],[-43.27866,-22.98189],[-43.279,-22.98354],[-43.28163,-22.98589],[-43.28271,-22.98794],[-43.28421,-22.99014],[-43.28498,-22.99245],[-43.28535,-22.9953],[-43.28469,-22.99654],[-43.28478,-23.00115],[-43.27569,-23.00111],[-43.27559,-23.00329],[-43.27308,-23.002],[-43.26264,-22.99974],[-43.25894,-22.99932],[-43.25707,-22.99949],[-43.2529,-22.99881],[-43.25044,-22.99958],[-43.24766,-22.99986],[-43.24531,-23.00115],[-43.24071,-23.00037],[-43.23972,-22.99871],[-43.2353,-22.99681],[-43.23293,-22.99387],[-43.2323,-22.99199],[-43.23087,-22.99082],[-43.22969,-22.99124],[-43.22699,-22.98963],[-43.22955,-22.9896],[-43.23133,-22.98832],[-43.23357,-22.98838],[-43.23684,-22.98951],[-43.2375,-22.98845],[-43.23698,-22.98529],[-43.23444,-22.98372],[-43.2314,-22.98044],[-43.22882,-22.98045],[-43.22672,-22.97968],[-43.22671,-22.97778],[-43.22496,-22.97654],[-43.22453,-22.97797],[-43.21975,-22.97695],[-43.21815,-22.97884],[-43.21492,-22.98047],[-43.20905,-22.98081],[-43.20633,-22.98072],[-43.20074,-22.97915],[-43.19538,-22.97712]],[[-43.25307,-22.99076],[-43.2568,-22.98913],[-43.25694,-22.98764],[-43.25573,-22.98455],[-43.25427,-22.98338],[-43.25144,-22.9836],[-43.24817,-22.98443],[-43.24483,-22.98581],[-43.24237,-22.98562],[-43.24056,-22.98656],[-43.23978,-22.99072],[-43.24398,-22.99191],[-43.24428,-22.99324],[-43.24799,-22.99511],[-43.25028,-22.99579],[-43.25254,-22.993],[-43.2516,-22.99221],[-43.25307,-22.99076]]]},"properties":{"cisp":15,"aisp":23,"st_area_sh":0.00162817832,"st_length_":0.44866881341,"areakm2":18.5}},
{"type":"Feature","geometry":{"type":"MultiPolygon","coordinates":[[[[-43.28271,-22.98794],[-43.29273,-22.97948],[-43.29631,-22.97906],[-43.29352,-22.9764],[-43.29537,-22.97633],[-43.29636,-22.97394],[-43.30124,-22.97334],[-43.30135,-22.96531],[-43.30363,-22.96657],[-43.30469,-22.96952],[-43.30659,-22.96995],[-43.31183,-22.97355],[-43.31353,-22.97385],[-43.31626,-22.97337],[-43.31876,-22.97409],[-43.32881,-22.97329],[-43.33104,-22.97536],[-43.33494,-22.97793],[-43.33642,-22.97785],[-43.3381,-22.97871],[-43.3419,-22.9817],[-43.34503,-22.98172],[-43.34718,-22.97892],[-43.35043,-22.97858],[-43.35305,-22.97877],[-43.35535,-22.97834],[-43.35616,-22.97672],[-43.35786,-22.97553],[-43.36077,-22.97546],[-43.36703,-22.97611],[-43.36937,-22.97561],[-43.37296,-22.97654],[-43.37428,-22.9775],[-43.37573,-22.97606],[-43.3781,-22.9747],[-43.37923,-22.97303],[-43.39832,-22.97289],[-43.40291,-22.9727],[-43.40577,-22.97568],[-43.40781,-22.9784],[-43.41499,-22.98773],[-43.41717,-22.98893],[-43.42049,-22.99141],[-43.42421,-22.99644],[-43.42673,-22.99789],[-43.43626,-23.00611],[-43.43605,-23.00679],[-43.43887,-23.008],[-43.45016,-23.01765],[-43.45012,-23.02084],[-43.4474,-23.02199],[-43.44714,-23.0231],[-43.43726,-23.02077],[-43.42644,-23.01894],[-43.41881,-23.01735],[-43.40601,-23.01548],[-43.39906,-23.01432],[-43.38622,-23.01322],[-43.37457,-23.01208],[-43.37294,-23.0118],[-43.36551,-23.01145],[-43.34923,-23.01103],[-43.34141,-23.01112],[-43.3295,-23.01199],[-43.32047,-23.01335],[-43.31514,-23.01448],[-43.30899,-23.01625],[-43.30352,-23.01616],[-43.29771,-23.01549],[-43.29611,-23.01687],[-43.29347,-23.01671],[-43.29226,-23.0151],[-43.28891,-23.01533],[-43.28735,-23.0148],[-43.28682,-23.01305],[-43.28721,-23.01089],[-43.28605,-23.00888],[-43.27967,-23.0056],[-43.27764,-23.0059],[-43.27569,-23.00432],[-43.27559,-23.00329],[-43.27569,-23.00111],[-43.28478,-23.00115],[-43.28469,-22.99654],[-43.28535,-22.9953],[-43.28498,-22.99245],[-43.28421,-22.99014],[-43.28271,-22.98794]]],[[[-43.30394,-23.03664],[-43.30526,-23.03806],[-43.30276,-23.03846],[-43.30394,-23.03664]]],[[[-43.29876,-23.03124],[-43.30076,-23.03194],[-43.3014,-23.03328],[-43.29927,-23.03421],[-43.29876,-23.03124]]]]},"properties":{"cisp":16,"aisp":31,"st_area_sh":0.00555253383,"st_length_":0.49879885252,"areakm2":63}},
{"type":"Feature","geometry":{"type":"MultiPolygon","coordinates":[[[[-43.21029,-22.89772],[-43.21081,-22.8976],[-43.216,-22.88669],[-43.21581,-22.88612],[-43.21013,-22.88004],[-43.20966,-22.88039],[-43.2044,-22.87434],[-43.20494,-22.87326],[-43.2046,-22.87124],[-43.20988,-22.86702],[-43.21236,-22.87001],[-43.21375,-22.87115],[-43.2125,-22.87235],[-43.21648,-22.87357],[-43.21706,-22.87582],[-43.21883,-22.87485],[-43.21818,-22.87323],[-43.2187,-22.87213],[-43.22403,-22.87363],[-43.22591,-22.87353],[-43.22563,-22.87093],[-43.22633,-22.86899],[-43.22961,-22.86795],[-43.23087,-22.86798],[-43.2329,-22.86913],[-43.23533,-22.87536],[-43.23924,-22.8799],[-43.23405,-22.88595],[-43.23259,-22.88704],[-43.23081,-22.88736],[-43.23362,-22.88965],[-43.23261,-22.89138],[-43.23309,-22.89445],[-43.23304,-22.897],[-43.23671,-22.89657],[-43.23667,-22.90002],[-43.24129,-22.89979],[-43.24114,-22.90438],[-43.23724,-22.90779],[-43.23814,-22.90849],[-43.23629,-22.90911],[-43.23449,-22.90885],[-43.22628,-22.90997],[-43.2244,-22.90965],[-43.21987,-22.90996],[-43.2178,-22.9076],[-43.20974,-22.90687],[-43.20959,-22.90947],[-43.20929,-22.90944],[-43.20984,-22.90019],[-43.21029,-22.89772]]],[[[-43.20738,-22.88913],[-43.20798,-22.88654],[-43.21038,-22.88635],[-43.21015,-22.8875],[-43.20855,-22.8897],[-43.20738,-22.88913]]]]},"properties":{"cisp":17,"aisp":4,"st_area_sh":0.00098098245,"st_length_":0.25358107987,"areakm2":11.1}},
{"type":"Feature","geometry":{"type":"Polygon","coordinates":[[[-43.20414,-22.9558],[-43.20197,-22.95466],[-43.20423,-22.95313],[-43.21002,-22.95196],[-43.2135,-22.9522],[-43.21415,-22.95063],[-43.21591,-22.94873],[-43.21713,-22.9482],[-43.21898,-22.9429],[-43.21911,-22.94038],[-43.21831,-22.93441],[-43.21428,-22.93339],[-43.21897,-22.93353],[-43.2204,-22.93213],[-43.21902,-22.92972],[-43.2181,-22.92699],[-43.22101,-22.92186],[-43.22232,-22.92143],[-43.22567,-22.91679],[-43.22945,-22.91614],[-43.23308,-22.91936],[-43.23487,-22.91937],[-43.23601,-22.92146],[-43.23629,-22.92361],[-43.23715,-22.92426],[-43.24205,-22.92426],[-43.24522,-22.92598],[-43.24371,-22.92857],[-43.24604,-22.92982],[-43.24976,-22.93016],[-43.25194,-22.9317],[-43.25541,-22.9358],[-43.2579,-22.9376],[-43.25873,-22.93917],[-43.26076,-22.93874],[-43.26285,-22.93943],[-43.26599,-22.93899],[-43.26944,-22.93981],[-43.27236,-22.94357],[-43.2745,-22.94446],[-43.27945,-22.93982],[-43.2835,-22.94138],[-43.28617,-22.94376],[-43.29107,-22.94457],[-43.29787,-22.94882],[-43.29947,-22.94953],[-43.30075,-22.95357],[-43.30018,-22.95811],[-43.30124,-22.9597],[-43.30038,-22.96228],[-43.30135,-22.96531],[-43.30124,-22.97334],[-43.29636,-22.97394],[-43.29537,-22.97633],[-43.29352,-22.9764],[-43.29631,-22.97906],[-43.29273,-22.97948],[-43.28271,-22.98794],[-43.28163,-22.98589],[-43.279,-22.98354],[-43.27866,-22.98189],[-43.27646,-22.98227],[-43.27293,-22.98175],[-43.26628,-22.98253],[-43.26377,-22.98212],[-43.25787,-22.97958],[-43.25124,-22.97891],[-43.24983,-22.979],[-43.24792,-22.98015],[-43.24225,-22.98234],[-43.24147,-22.98087],[-43.24343,-22.98076],[-43.24684,-22.97874],[-43.24816,-22.97701],[-43.24516,-22.97448],[-43.24387,-22.97527],[-43.24266,-22.97911],[-43.23797,-22.98033],[-43.23765,-22.97974],[-43.23902,-22.97657],[-43.23675,-22.97453],[-43.23412,-22.97493],[-43.23226,-22.97448],[-43.23039,-22.97228],[-43.22909,-22.97191],[-43.22812,-22.96971],[-43.23371,-22.97088],[-43.2375,-22.97204],[-43.23874,-22.97048],[-43.23893,-22.96884],[-43.24146,-22.96936],[-43.24263,-22.96871],[-43.24125,-22.96645],[-43.23804,-22.96443],[-43.23284,-22.96469],[-43.22779,-22.96231],[-43.22769,-22.96131],[-43.22334,-22.95887],[-43.22142,-22.95845],[-43.21945,-22.95978],[-43.21533,-22.95928],[-43.21246,-22.95774],[-43.20843,-22.95639],[-43.2056,-22.95682],[-43.20414,-22.9558]]]},"properties":{"cisp":19,"aisp":6,"st_area_sh":0.00356129254,"st_length_":0.4201979665,"areakm2":40.4}},
{"type":"Feature","geometry":{"type":"Polygon","coordinates":[[[-43.25476,-22.83659],[-43.25508,-22.83516],[-43.25662,-22.83358],[-43.26513,-22.82609],[-43.26702,-22.82315],[-43.27291,-22.81042],[-43.28019,-22.81328],[-43.28148,-22.81427],[-43.28743,-22.82093],[-43.29006,-22.82208],[-43.28897,-22.82466],[-43.2941,-22.82818],[-43.29236,-22.83086],[-43.28898,-22.83206],[-43.28441,-22.837],[-43.28642,-22.83999],[-43.29457,-22.84457],[-43.29742,-22.84583],[-43.29663,-22.8467],[-43.29653,-22.84941],[-43.29588,-22.85031],[-43.29208,-22.85256],[-43.28767,-22.85502],[-43.2894,-22.85706],[-43.28803,-22.85837],[-43.28914,-22.86051],[-43.2886,-22.86184],[-43.28834,-22.86631],[-43.28541,-22.86766],[-43.28398,-22.87006],[-43.28286,-22.86979],[-43.28028,-22.87313],[-43.27872,-22.87352],[-43.27681,-22.87196],[-43.27613,-22.86984],[-43.27418,-22.86794],[-43.27166,-22.86712],[-43.26988,-22.86709],[-43.26805,-22.86882],[-43.26805,-22.86886],[-43.26791,-22.86893],[-43.26568,-22.86788],[-43.2645,-22.86588],[-43.25821,-22.86669],[-43.25737,-22.86556],[-43.25815,-22.86325],[-43.25977,-22.86188],[-43.26265,-22.86263],[-43.26512,-22.86163],[-43.26769,-22.86191],[-43.26729,-22.85968],[-43.26459,-22.85913],[-43.26216,-22.85799],[-43.26313,-22.85617],[-43.26605,-22.85751],[-43.2668,-22.85623],[-43.26311,-22.85261],[-43.26315,-22.85065],[-43.25877,-22.84583],[-43.25736,-22.84575],[-43.25455,-22.83902],[-43.25624,-22.83785],[-43.25476,-22.83659]]]},"properties":{"cisp":22,"aisp":16,"st_area_sh":0.00152191916,"st_length_":0.22619988831,"areakm2":17.3}},
{"type":"Feature","geometry":{"type":"Polygon","coordinates":[[[-43.30135,-22.96531],[-43.30038,-22.96228],[-43.30124,-22.9597],[-43.30018,-22.95811],[-43.30075,-22.95357],[-43.29947,-22.94953],[-43.29787,-22.94882],[-43.29107,-22.94457],[-43.28617,-22.94376],[-43.28515,-22.9417],[-43.28549,-22.93803],[-43.28653,-22.93623],[-43.286,-22.93519],[-43.28057,-22.93214],[-43.27855,-22.92803],[-43.27839,-22.9266],[-43.27939,-22.92432],[-43.27875,-22.92126],[-43.28238,-22.92057],[-43.28288,-22.91907],[-43.28435,-22.91854],[-43.29112,-22.92192],[-43.29276,-22.92124],[-43.29472,-22.92143],[-43.30094,-22.92101],[-43.30356,-22.91937],[-43.3088,-22.91696],[-43.31072,-22.9165],[-43.31491,-22.91675],[-43.31659,-22.9179],[-43.32053,-22.91708],[-43.32358,-22.91937],[-43.32624,-22.92206],[-43.32663,-22.92295],[-43.32566,-22.9276],[-43.322,-22.92985],[-43.32413,-22.93057],[-43.32834,-22.93409],[-43.32534,-22.93636],[-43.32528,-22.94021],[-43.33151,-22.94313],[-43.33536,-22.94432],[-43.33735,-22.94666],[-43.33977,-22.94728],[-43.34159,-22.95042],[-43.34485,-22.95289],[-43.34831,-22.95379],[-43.34936,-22.95449],[-43.35198,-22.95273],[-43.35379,-22.95274],[-43.35558,-22.95188],[-43.35486,-22.95061],[-43.3567,-22.95007],[-43.35998,-22.94699],[-43.35849,-22.94584],[-43.35912,-22.94388],[-43.3613,-22.94367],[-43.36044,-22.93748],[-43.3623,-22.93734],[-43.36369,-22.93566],[-43.36306,-22.9326],[-43.36046,-22.92832],[-43.35909,-22.9275],[-43.36415,-22.92584],[-43.3648,-22.92435],[-43.36515,-22.92137],[-43.36418,-22.91953],[-43.36458,-22.91821],[-43.36888,-22.91845],[-43.37111,-22.91765],[-43.37236,-22.91462],[-43.37521,-22.91418],[-43.37744,-22.91207],[-43.37838,-22.91054],[-43.37858,-22.90829],[-43.37957,-22.907],[-43.38324,-22.90516],[-43.38652,-22.90257],[-43.38911,-22.90324],[-43.39658,-22.90444],[-43.4155,-22.90641],[-43.41976,-22.90939],[-43.41599,-22.9114],[-43.41699,-22.91321],[-43.4206,-22.91302],[-43.421,-22.91206],[-43.42531,-22.91182],[-43.4264,-22.91069],[-43.42902,-22.90988],[-43.43123,-22.90782],[-43.43567,-22.90873],[-43.43997,-22.90913],[-43.4501,-22.91225],[-43.45167,-22.91358],[-43.45517,-22.91474],[-43.46045,-22.91513],[-43.46387,-22.91512],[-43.46658,-22.91563],[-43.46763,-22.91633],[-43.46871,-22.91716],[-43.46917,-22.91999],[-43.46857,-22.92209],[-43.46752,-22.9232],[-43.47122,-22.9264],[-43.47235,-22.92793],[-43.47284,-22.93179],[-43.47188,-22.93157],[-43.47004,-22.93406],[-43.46971,-22.93631],[-43.46721,-22.9391],[-43.46513,-22.94084],[-43.46419,-22.94259],[-43.46522,-22.94522],[-43.46659,-22.9463],[-43.45591,-22.94774],[-43.44965,-22.94646],[-43.44587,-22.94527],[-43.44281,-22.94527],[-43.44056,-22.94645],[-43.43706,-22.94753],[-43.43624,-22.94866],[-43.43666,-22.95589],[-43.43461,-22.95677],[-43.4284,-22.95708],[-43.42815,-22.95908],[-43.42601,-22.96318],[-43.42562,-22.96568],[-43.42587,-22.96936],[-43.42346,-22.97176],[-43.4217,-22.97234],[-43.42097,-22.97349],[-43.41753,-22.97321],[-43.4149,-22.97456],[-43.4093,-22.97832],[-43.40781,-22.9784],[-43.40577,-22.97568],[-43.40291,-22.9727],[-43.39832,-22.97289],[-43.37923,-22.97303],[-43.3781,-22.9747],[-43.37573,-22.97606],[-43.37428,-22.9775],[-43.37296,-22.97654],[-43.36937,-22.97561],[-43.36703,-22.97611],[-43.36077,-22.97546],[-43.35786,-22.97553],[-43.35616,-22.97672],[-43.35535,-22.97834],[-43.35305,-22.97877],[-43.35043,-22.97858],[-43.34718,-22.97892],[-43.34503,-22.98172],[-43.3419,-22.9817],[-43.3381,-22.97871],[-43.33642,-22.97785],[-43.33494,-22.97793],[-43.33104,-22.97536],[-43.32881,-22.97329],[-43.31876,-22.97409],[-43.31626,-22.97337],[-43.31353,-22.97385],[-43.31183,-22.97355],[-43.30659,-22.96995],[-43.30469,-22.96952],[-43.30363,-22.96657],[-43.30135,-22.96531]]]},"properties":{"cisp":32,"aisp":18,"st_area_sh":0.00865401809,"st_length_":0.60926253982,"areakm2":98.3}},
{"type":"Feature","geometry":{"type":"Polygon","coordinates":[[[-43.25307,-22.99076],[-43.2516,-22.99221],[-43.25254,-22.993],[-43.25028,-22.99579],[-43.24799,-22.99511],[-43.24428,-22.99324],[-43.24398,-22.99191],[-43.23978,-22.99072],[-43.24056,-22.98656],[-43.24237,-22.98562],[-43.24483,-22.98581],[-43.24817,-22.98443],[-43.25144,-22.9836],[-43.25427,-22.98338],[-43.25573,-22.98455],[-43.25694,-22.98764],[-43.2568,-22.98913],[-43.25307,-22.99076]]]},"properties":{"cisp":11,"aisp":23,"st_area_sh":0.00012657386,"st_length_":0.05797812997,"areakm2":1.4}},
{"type":"Feature","geometry":{"type":"Polygon","coordinates":[[[-43.52635,-22.80097],[-43.52854,-22.7996],[-43.53148,-22.80165],[-43.53513,-22.80229],[-43.53436,-22.80356],[-43.53586,-22.80487],[-43.53635,-22.80694],[-43.5392,-22.80884],[-43.53979,-22.81193],[-43.54183,-22.81312],[-43.54374,-22.81513],[-43.54922,-22.81451],[-43.55184,-22.81465],[-43.55297,-22.81638],[-43.55414,-22.81482],[-43.55583,-22.81539],[-43.55801,-22.8181],[-43.56082,-22.8175],[-43.56176,-22.81914],[-43.56537,-22.82118],[-43.56697,-22.8215],[-43.57032,-22.82117],[-43.57219,-22.82493],[-43.5729,-22.82736],[-43.57779,-22.83188],[-43.58031,-22.83548],[-43.58257,-22.83584],[-43.58467,-22.83446],[-43.58621,-22.8349],[-43.58796,-22.83662],[-43.58811,-22.83866],[-43.59019,-22.84538],[-43.59057,-22.8498],[-43.59267,-22.86072],[-43.59519,-22.85828],[-43.59692,-22.85782],[-43.60248,-22.85902],[-43.61907,-22.86216],[-43.623,-22.86277],[-43.625,-22.86234],[-43.61585,-22.87405],[-43.61248,-22.87613],[-43.61683,-22.87818],[-43.6191,-22.87894],[-43.62319,-22.87974],[-43.63212,-22.88112],[-43.62925,-22.88309],[-43.62536,-22.88308],[-43.62334,-22.88344],[-43.62225,-22.88461],[-43.61836,-22.88552],[-43.62146,-22.89094],[-43.61935,-22.89745],[-43.62101,-22.89931],[-43.62256,-22.89968],[-43.62707,-22.90256],[-43.62643,-22.90359],[-43.6278,-22.90568],[-43.62713,-22.90725],[-43.62867,-22.90891],[-43.62689,-22.91098],[-43.62787,-22.91165],[-43.62638,-22.91406],[-43.62737,-22.91496],[-43.62501,-22.91626],[-43.6243,-22.91985],[-43.62094,-22.91947],[-43.6217,-22.93055],[-43.62166,-22.93621],[-43.6163,-22.93484],[-43.61465,-22.93468],[-43.60583,-22.93436],[-43.60377,-22.93396],[-43.59808,-22.93531],[-43.59245,-22.93559],[-43.58929,-22.93436],[-43.58648,-22.93224],[-43.58181,-22.93228],[-43.5785,-22.93154],[-43.5779,-22.93189],[-43.57819,-22.93498],[-43.57722,-22.94449],[-43.57664,-22.94724],[-43.57269,-22.94642],[-43.571,-22.94534],[-43.56792,-22.93957],[-43.56168,-22.94161],[-43.56129,-22.9471],[-43.56171,-22.94955],[-43.56097,-22.95005],[-43.55846,-22.94957],[-43.55509,-22.95013],[-43.54993,-22.94864],[-43.54557,-22.9464],[-43.54196,-22.94384],[-43.53854,-22.94229],[-43.53553,-22.94362],[-43.51755,-22.953],[-43.51648,-22.95234],[-43.51197,-22.95218],[-43.51056,-22.95089],[-43.50645,-22.94974],[-43.50289,-22.94361],[-43.50115,-22.94265],[-43.49697,-22.9421],[-43.49496,-22.94132],[-43.49298,-22.93903],[-43.48451,-22.93619],[-43.4829,-22.9343],[-43.47927,-22.93452],[-43.47625,-22.93291],[-43.47444,-22.93271],[-43.47284,-22.93179],[-43.47973,-22.92733],[-43.48287,-22.92557],[-43.4845,-22.92559],[-43.48623,-22.92667],[-43.48871,-22.92674],[-43.4911,-22.92428],[-43.49528,-22.92285],[-43.4956,-22.92051],[-43.49646,-22.91917],[-43.49651,-22.91715],[-43.49332,-22.91339],[-43.49435,-22.90919],[-43.49805,-22.90776],[-43.49929,-22.90503],[-43.50103,-22.9042],[-43.50236,-22.90498],[-43.50633,-22.90123],[-43.50761,-22.89948],[-43.51141,-22.89839],[-43.51283,-22.89754],[-43.50795,-22.89434],[-43.50654,-22.89301],[-43.50272,-22.89212],[-43.507,-22.87988],[-43.50808,-22.87748],[-43.5044,-22.87625],[-43.50519,-22.87506],[-43.50441,-22.87314],[-43.50751,-22.87085],[-43.51101,-22.86586],[-43.51231,-22.86342],[-43.51441,-22.86303],[-43.51511,-22.85227],[-43.52035,-22.84654],[-43.51833,-22.84457],[-43.51967,-22.84336],[-43.52078,-22.83992],[-43.52326,-22.83723],[-43.52469,-22.8363],[-43.52702,-22.83105],[-43.52687,-22.82732],[-43.52504,-22.82451],[-43.52177,-22.82265],[-43.52016,-22.82315],[-43.51607,-22.82032],[-43.51445,-22.82028],[-43.51242,-22.81888],[-43.51105,-22.81908],[-43.50839,-22.82125],[-43.50738,-22.82001],[-43.5056,-22.81932],[-43.50186,-22.81933],[-43.49911,-22.81801],[-43.49834,-22.81542],[-43.49622,-22.81374],[-43.4962,-22.81203],[-43.49396,-22.81053],[-43.49365,-22.80737],[-43.49206,-22.80457],[-43.4917,-22.80267],[-43.49265,-22.80149],[-43.49634,-22.8021],[-43.50038,-22.80199],[-43.50351,-22.80321],[-43.50788,-22.80629],[-43.51002,-22.80591],[-43.51006,-22.80395],[-43.51157,-22.80307],[-43.51281,-22.80115],[-43.51651,-22.79993],[-43.52219,-22.80205],[-43.52512,-22.80242],[-43.52635,-22.80097]]]},"properties":{"cisp":35,"aisp":40,"st_area_sh":0.01350849635,"st_length_":0.71848046948,"areakm2":153.5}},
{"type":"Feature","geometry":{"type":"Polygon","coordinates":[[[-43.625,-22.86234],[-43.6305,-22.86051],[-43.64287,-22.85599],[-43.64424,-22.85577],[-43.64969,-22.85722],[-43.65102,-22.85799],[-43.65832,-22.86325],[-43.6656,-22.86515],[-43.6703,-22.86511],[-43.67243,-22.86393],[-43.674,-22.86463],[-43.67722,-22.86535],[-43.67795,-22.86396],[-43.67975,-22.86362],[-43.6809,-22.86258],[-43.6859,-22.86512],[-43.69037,-22.86672],[-43.69246,-22.86426],[-43.69734,-22.86471],[-43.70109,-22.86598],[-43.70324,-22.86787],[-43.70698,-22.86859],[-43.71072,-22.86677],[-43.71234,-22.86711],[-43.71414,-22.86881],[-43.71556,-22.87112],[-43.71759,-22.87248],[-43.72078,-22.87225],[-43.72542,-22.87261],[-43.72744,-22.87328],[-43.73347,-22.87784],[-43.73446,-22.87833],[-43.74144,-22.87715],[-43.74818,-22.87793],[-43.75167,-22.87983],[-43.75223,-22.88089],[-43.75064,-22.88748],[-43.75143,-22.88863],[-43.7572,-22.89066],[-43.75828,-22.8902],[-43.76219,-22.89056],[-43.76433,-22.89198],[-43.7651,-22.89395],[-43.76638,-22.89486],[-43.76902,-22.89469],[-43.76911,-22.89349],[-43.77315,-22.89248],[-43.77455,-22.89267],[-43.77507,-22.89564],[-43.77823,-22.89617],[-43.77904,-22.89479],[-43.78061,-22.89511],[-43.78167,-22.8976],[-43.78095,-22.89934],[-43.7834,-22.90343],[-43.78512,-22.90395],[-43.78583,-22.90181],[-43.78772,-22.90062],[-43.78901,-22.9011],[-43.78969,-22.90301],[-43.79442,-22.90331],[-43.79541,-22.90618],[-43.79492,-22.9076],[-43.79241,-22.90816],[-43.79219,-22.91023],[-43.79116,-22.91186],[-43.7907,-22.91434],[-43.79388,-22.91601],[-43.79486,-22.91747],[-43.79458,-22.91932],[-43.79304,-22.92188],[-43.79213,-22.92198],[-43.78983,-22.92551],[-43.78681,-22.92683],[-43.78611,-22.92874],[-43.78393,-22.928],[-43.78085,-22.92878],[-43.77891,-22.92974],[-43.77662,-22.93182],[-43.77596,-22.93303],[-43.77388,-22.93928],[-43.77206,-22.94103],[-43.77093,-22.94133],[-43.76639,-22.94109],[-43.76404,-22.94035],[-43.76164,-22.94038],[-43.75708,-22.93985],[-43.75352,-22.94182],[-43.7491,-22.9453],[-43.74758,-22.94605],[-43.74579,-22.94573],[-43.74365,-22.94889],[-43.73845,-22.95271],[-43.73099,-22.95667],[-43.72574,-22.96019],[-43.72366,-22.96189],[-43.7191,-22.96679],[-43.71687,-22.9658],[-43.71397,-22.96566],[-43.70828,-22.96359],[-43.70559,-22.95815],[-43.70409,-22.95592],[-43.69952,-22.9508],[-43.69524,-22.94683],[-43.69488,-22.94598],[-43.68631,-22.94718],[-43.68417,-22.94649],[-43.68111,-22.94957],[-43.68286,-22.95286],[-43.68618,-22.95498],[-43.68532,-22.95703],[-43.6831,-22.95818],[-43.68297,-22.95952],[-43.68511,-22.96147],[-43.68787,-22.96288],[-43.68099,-22.96579],[-43.67079,-22.97034],[-43.66804,-22.96931],[-43.66495,-22.96731],[-43.662,-22.96216],[-43.65768,-22.95692],[-43.65437,-22.95495],[-43.6493,-22.95436],[-43.64492,-22.95705],[-43.6421,-22.9559],[-43.63791,-22.95613],[-43.63562,-22.95471],[-43.63317,-22.95396],[-43.632,-22.95293],[-43.62877,-22.95156],[-43.62626,-22.95111],[-43.62546,-22.95029],[-43.62152,-22.94913],[-43.61702,-22.94632],[-43.61669,-22.9443],[-43.61407,-22.942],[-43.61339,-22.93617],[-43.61465,-22.93468],[-43.6163,-22.93484],[-43.62166,-22.93621],[-43.6217,-22.93055],[-43.62094,-22.91947],[-43.6243,-22.91985],[-43.62501,-22.91626],[-43.62737,-22.91496],[-43.62638,-22.91406],[-43.62787,-22.91165],[-43.62689,-22.91098],[-43.62867,-22.90891],[-43.62713,-22.90725],[-43.6278,-22.90568],[-43.62643,-22.90359],[-43.62707,-22.90256],[-43.62256,-22.89968],[-43.62101,-22.89931],[-43.61935,-22.89745],[-43.62146,-22.89094],[-43.61836,-22.88552],[-43.62225,-22.88461],[-43.62334,-22.88344],[-43.62536,-22.88308],[-43.62925,-22.88309],[-43.63212,-22.88112],[-43.62319,-22.87974],[-43.6191,-22.87894],[-43.61683,-22.87818],[-43.61248,-22.87613],[-43.61585,-22.87405],[-43.625,-22.86234]]]},"properties":{"cisp":36,"aisp":27,"st_area_sh":0.01342545376,"st_length_":0.63572190501,"areakm2":152.5}},
{"type":"Feature","geometry":{"type":"MultiPolygon","coordinates":[[[[-43.40781,-22.9784],[-43.4093,-22.97832],[-43.4149,-22.97456],[-43.41753,-22.97321],[-43.42097,-22.97349],[-43.4217,-22.97234],[-43.42346,-22.97176],[-43.42587,-22.96936],[-43.42562,-22.96568],[-43.42601,-22.96318],[-43.42815,-22.95908],[-43.4284,-22.95708],[-43.43461,-22.95677],[-43.43666,-22.95589],[-43.43624,-22.94866],[-43.43706,-22.94753],[-43.44056,-22.94645],[-43.44281,-22.94527],[-43.44587,-22.94527],[-43.44965,-22.94646],[-43.45591,-22.94774],[-43.46659,-22.9463],[-43.46522,-22.94522],[-43.46419,-22.94259],[-43.46513,-22.94084],[-43.46721,-22.9391],[-43.46971,-22.93631],[-43.47004,-22.93406],[-43.47188,-22.93157],[-43.47284,-22.93179],[-43.47444,-22.93271],[-43.47625,-22.93291],[-43.47927,-22.93452],[-43.4829,-22.9343],[-43.48451,-22.93619],[-43.49298,-22.93903],[-43.49496,-22.94132],[-43.49697,-22.9421],[-43.50115,-22.94265],[-43.50289,-22.94361],[-43.50645,-22.94974],[-43.51056,-22.95089],[-43.51197,-22.95218],[-43.51648,-22.95234],[-43.51755,-22.953],[-43.51764,-22.95554],[-43.51872,-22.95679],[-43.51808,-22.95948],[-43.51765,-22.96405],[-43.52082,-22.96779],[-43.51863,-22.96986],[-43.51631,-22.97417],[-43.51931,-22.97744],[-43.51907,-22.98174],[-43.51997,-22.98378],[-43.51982,-22.98653],[-43.52087,-22.98831],[-43.51922,-22.99159],[-43.5197,-22.993],[-43.52208,-22.99468],[-43.52225,-22.99683],[-43.52102,-22.99828],[-43.52124,-22.99938],[-43.52314,-23.00201],[-43.5231,-23.00384],[-43.52171,-23.0068],[-43.52204,-23.00774],[-43.52522,-23.0087],[-43.52691,-23.0081],[-43.53003,-23.00922],[-43.53091,-23.01018],[-43.53033,-23.01176],[-43.53109,-23.01276],[-43.53498,-23.01355],[-43.53905,-23.01332],[-43.54155,-23.01184],[-43.54357,-23.01612],[-43.54455,-23.01921],[-43.54647,-23.021],[-43.54751,-23.02326],[-43.54985,-23.02471],[-43.55514,-23.02479],[-43.55981,-23.02376],[-43.56367,-23.02608],[-43.56276,-23.02865],[-43.56407,-23.03128],[-43.56369,-23.03279],[-43.5621,-23.03463],[-43.55782,-23.04072],[-43.55404,-23.04429],[-43.55282,-23.04656],[-43.55255,-23.04828],[-43.55343,-23.0515],[-43.56122,-23.05793],[-43.56396,-23.06117],[-43.56563,-23.06206],[-43.56621,-23.06342],[-43.56793,-23.06445],[-43.56879,-23.06611],[-43.56736,-23.06959],[-43.56762,-23.07167],[-43.5705,-23.07211],[-43.57131,-23.07355],[-43.5693,-23.07423],[-43.56674,-23.07354],[-43.56638,-23.07508],[-43.56298,-23.0757],[-43.56064,-23.07422],[-43.55643,-23.07381],[-43.55537,-23.07321],[-43.55211,-23.07576],[-43.54904,-23.07291],[-43.55206,-23.07197],[-43.55244,-23.07007],[-43.55146,-23.06715],[-43.55001,-23.06559],[-43.54807,-23.06504],[-43.54958,-23.06327],[-43.54838,-23.06111],[-43.54501,-23.05913],[-43.5434,-23.05947],[-43.53989,-23.05646],[-43.53768,-23.05631],[-43.5362,-23.05555],[-43.53501,-23.05325],[-43.5359,-23.05143],[-43.53474,-23.05051],[-43.53199,-23.04963],[-43.52337,-23.04851],[-43.51896,-23.04827],[-43.51311,-23.04828],[-43.50896,-23.04766],[-43.50702,-23.04615],[-43.50743,-23.04296],[-43.50613,-23.0415],[-43.50307,-23.04005],[-43.50037,-23.0411],[-43.49942,-23.03992],[-43.49872,-23.03763],[-43.49568,-23.03718],[-43.4946,-23.03613],[-43.491,-23.03497],[-43.48192,-23.03267],[-43.4763,-23.03157],[-43.47415,-23.03166],[-43.47192,-23.03241],[-43.47065,-23.03347],[-43.47213,-23.03583],[-43.47067,-23.03787],[-43.46841,-23.03794],[-43.46759,-23.03716],[-43.4698,-23.03242],[-43.46722,-23.03003],[-43.46498,-23.0288],[-43.46127,-23.0274],[-43.453,-23.02467],[-43.44714,-23.0231],[-43.4474,-23.02199],[-43.45012,-23.02084],[-43.45016,-23.01765],[-43.43887,-23.008],[-43.43605,-23.00679],[-43.43626,-23.00611],[-43.42673,-22.99789],[-43.42421,-22.99644],[-43.42049,-22.99141],[-43.41717,-22.98893],[-43.41499,-22.98773],[-43.40781,-22.9784]]],[[[-43.51147,-23.06138],[-43.51307,-23.06206],[-43.51268,-23.06361],[-43.51424,-23.06464],[-43.51376,-23.06582],[-43.50886,-23.06559],[-43.50799,-23.0645],[-43.50916,-23.06333],[-43.5108,-23.06308],[-43.51147,-23.06138]]],[[[-43.55977,-23.08008],[-43.56166,-23.07887],[-43.56285,-23.08097],[-43.56159,-23.08163],[-43.55977,-23.08008]]]]},"properties":{"cisp":42,"aisp":31,"st_area_sh":0.00989934406,"st_length_":0.65776622052,"areakm2":112.4}},
{"type":"Feature","geometry":{"type":"Polygon","coordinates":[[[-43.61465,-22.93468],[-43.61339,-22.93617],[-43.61407,-22.942],[-43.61669,-22.9443],[-43.61702,-22.94632],[-43.62152,-22.94913],[-43.62546,-22.95029],[-43.62626,-22.95111],[-43.62877,-22.95156],[-43.632,-22.95293],[-43.63317,-22.95396],[-43.63562,-22.95471],[-43.63791,-22.95613],[-43.6421,-22.9559],[-43.64492,-22.95705],[-43.6493,-22.95436],[-43.65437,-22.95495],[-43.65768,-22.95692],[-43.662,-22.96216],[-43.66495,-22.96731],[-43.66804,-22.96931],[-43.67079,-22.97034],[-43.68099,-22.96579],[-43.68787,-22.96288],[-43.68511,-22.96147],[-43.68297,-22.95952],[-43.6831,-22.95818],[-43.68532,-22.95703],[-43.68618,-22.95498],[-43.68286,-22.95286],[-43.68111,-22.94957],[-43.68417,-22.94649],[-43.68631,-22.94718],[-43.69488,-22.94598],[-43.69524,-22.94683],[-43.69952,-22.9508],[-43.70409,-22.95592],[-43.70559,-22.95815],[-43.70828,-22.96359],[-43.71397,-22.96566],[-43.71687,-22.9658],[-43.7191,-22.96679],[-43.71819,-22.96938],[-43.71928,-22.97144],[-43.71604,-22.97036],[-43.71147,-22.97152],[-43.70632,-22.97533],[-43.7033,-22.97979],[-43.70005,-22.9861],[-43.69823,-22.98591],[-43.6958,-22.98461],[-43.69321,-22.98663],[-43.69102,-22.98916],[-43.68963,-22.99143],[-43.68871,-22.98978],[-43.68895,-22.9883],[-43.68771,-22.98632],[-43.68601,-22.98505],[-43.68396,-22.98452],[-43.68081,-22.98142],[-43.67743,-22.98057],[-43.67425,-22.98041],[-43.66963,-22.98342],[-43.66212,-22.98864],[-43.66004,-22.99152],[-43.65889,-22.99215],[-43.6564,-22.99581],[-43.6554,-22.99834],[-43.65271,-23.00111],[-43.65286,-23.00283],[-43.6495,-23.00221],[-43.64832,-23.00119],[-43.64616,-23.0023],[-43.64401,-23.00184],[-43.64165,-23.00307],[-43.63861,-23.0063],[-43.63707,-23.00566],[-43.63542,-23.00597],[-43.63364,-23.00717],[-43.62999,-23.00871],[-43.62752,-23.00902],[-43.6266,-23.01098],[-43.62448,-23.0119],[-43.62348,-23.01476],[-43.61072,-23.02062],[-43.60791,-23.02167],[-43.60501,-23.02217],[-43.60311,-23.02204],[-43.59929,-23.02287],[-43.59889,-23.02341],[-43.61453,-23.031],[-43.61562,-23.03167],[-43.61984,-23.03289],[-43.6226,-23.03328],[-43.63013,-23.0334],[-43.63252,-23.03374],[-43.63579,-23.03332],[-43.64128,-23.03547],[-43.64568,-23.03672],[-43.65116,-23.03778],[-43.65689,-23.03935],[-43.66052,-23.04089],[-43.66318,-23.04084],[-43.66704,-23.04282],[-43.66847,-23.05408],[-43.66411,-23.05285],[-43.6614,-23.05281],[-43.65441,-23.05207],[-43.64,-23.0512],[-43.63246,-23.05063],[-43.6219,-23.05064],[-43.61661,-23.05046],[-43.60378,-23.0512],[-43.59733,-23.05182],[-43.58895,-23.05338],[-43.58054,-23.05534],[-43.57606,-23.05693],[-43.57328,-23.05842],[-43.57007,-23.06085],[-43.56844,-23.06253],[-43.56621,-23.06342],[-43.56563,-23.06206],[-43.56396,-23.06117],[-43.56122,-23.05793],[-43.55343,-23.0515],[-43.55255,-23.04828],[-43.55282,-23.04656],[-43.55404,-23.04429],[-43.55782,-23.04072],[-43.5621,-23.03463],[-43.56369,-23.03279],[-43.56407,-23.03128],[-43.56276,-23.02865],[-43.56367,-23.02608],[-43.55981,-23.02376],[-43.55514,-23.02479],[-43.54985,-23.02471],[-43.54751,-23.02326],[-43.54647,-23.021],[-43.54455,-23.01921],[-43.54357,-23.01612],[-43.54155,-23.01184],[-43.53905,-23.01332],[-43.53498,-23.01355],[-43.53109,-23.01276],[-43.53033,-23.01176],[-43.53091,-23.01018],[-43.53003,-23.00922],[-43.52691,-23.0081],[-43.52522,-23.0087],[-43.52204,-23.00774],[-43.52171,-23.0068],[-43.5231,-23.00384],[-43.52314,-23.00201],[-43.52124,-22.99938],[-43.52102,-22.99828],[-43.52225,-22.99683],[-43.52208,-22.99468],[-43.5197,-22.993],[-43.51922,-22.99159],[-43.52087,-22.98831],[-43.51982,-22.98653],[-43.51997,-22.98378],[-43.51907,-22.98174],[-43.51931,-22.97744],[-43.51631,-22.97417],[-43.51863,-22.96986],[-43.52082,-22.96779],[-43.51765,-22.96405],[-43.51808,-22.95948],[-43.51872,-22.95679],[-43.51764,-22.95554],[-43.51755,-22.953],[-43.53553,-22.94362],[-43.53854,-22.94229],[-43.54196,-22.94384],[-43.54557,-22.9464],[-43.54993,-22.94864],[-43.55509,-22.95013],[-43.55846,-22.94957],[-43.56097,-22.95005],[-43.56171,-22.94955],[-43.56129,-22.9471],[-43.56168,-22.94161],[-43.56792,-22.93957],[-43.571,-22.94534],[-43.57269,-22.94642],[-43.57664,-22.94724],[-43.57722,-22.94449],[-43.57819,-22.93498],[-43.5779,-22.93189],[-43.5785,-22.93154],[-43.58181,-22.93228],[-43.58648,-22.93224],[-43.58929,-22.93436],[-43.59245,-22.93559],[-43.59808,-22.93531],[-43.60377,-22.93396],[-43.60583,-22.93436],[-43.61465,-22.93468]]]},"properties":{"cisp":43,"aisp":27,"st_area_sh":0.01367177178,"st_length_":0.86116575158,"areakm2":155.2}},
{"type":"Feature","geometry":{"type":"Polygon","coordinates":[[[-43.1884,-22.98785],[-43.18538,-22.98627],[-43.1858,-22.98537],[-43.18795,-22.98571],[-43.1891,-22.98279],[-43.18843,-22.9789],[-43.18463,-22.97416],[-43.18914,-22.96959],[-43.19189,-22.96644],[-43.1934,-22.96723],[-43.19693,-22.96662],[-43.19792,-22.96908],[-43.19538,-22.97712],[-43.19551,-22.97874],[-43.19702,-22.97913],[-43.19742,-22.98194],[-43.19406,-22.98413],[-43.19162,-22.98724],[-43.18885,-22.98651],[-43.1884,-22.98785]]]},"properties":{"cisp":13,"aisp":19,"st_area_sh":0.0001669934,"st_length_":0.07293752062,"areakm2":1.9}},
{"type":"Feature","geometry":{"type":"Polygon","coordinates":[[[-43.26431,-22.88609],[-43.26579,-22.886],[-43.26815,-22.88725],[-43.26848,-22.88585],[-43.27006,-22.88631],[-43.27232,-22.8848],[-43.27504,-22.8867],[-43.27689,-22.88392],[-43.27793,-22.8848],[-43.27994,-22.88341],[-43.27889,-22.88098],[-43.28608,-22.88286],[-43.28866,-22.8829],[-43.29078,-22.88419],[-43.29004,-22.88559],[-43.28716,-22.88715],[-43.28783,-22.88802],[-43.28774,-22.89174],[-43.28669,-22.89678],[-43.28327,-22.89743],[-43.28093,-22.89871],[-43.27739,-22.90215],[-43.27534,-22.90375],[-43.27377,-22.90428],[-43.27212,-22.90323],[-43.27126,-22.90025],[-43.26726,-22.89716],[-43.26493,-22.89312],[-43.26316,-22.89259],[-43.26354,-22.89044],[-43.26382,-22.89037],[-43.26499,-22.89002],[-43.26431,-22.88609]]]},"properties":{"cisp":23,"aisp":3,"st_area_sh":0.00035448099,"st_length_":0.09833857969,"areakm2":4}},
{"type":"Feature","geometry":{"type":"Polygon","coordinates":[[[-43.17068,-22.90357],[-43.17515,-22.9003],[-43.1764,-22.89832],[-43.17692,-22.89633],[-43.17577,-22.8961],[-43.17488,-22.89749],[-43.1713,-22.89863],[-43.17074,-22.8979],[-43.16822,-22.89752],[-43.16733,-22.89546],[-43.17466,-22.89315],[-43.1758,-22.89598],[-43.1795,-22.8956],[-43.17829,-22.89257],[-43.17906,-22.89232],[-43.18013,-22.89502],[-43.18111,-22.89542],[-43.18074,-22.89727],[-43.182,-22.90033],[-43.18766,-22.89899],[-43.18981,-22.90038],[-43.18605,-22.90791],[-43.17897,-22.90593],[-43.17845,-22.90638],[-43.17266,-22.90652],[-43.17186,-22.90624],[-43.17068,-22.90357]]]},"properties":{"cisp":1,"aisp":5,"st_area_sh":0.0001615514,"st_length_":0.1075196432,"areakm2":1.8}},
{"type":"Feature","geometry":{"type":"Polygon","coordinates":[[[-43.18605,-22.90791],[-43.18981,-22.90038],[-43.18766,-22.89899],[-43.182,-22.90033],[-43.18074,-22.89727],[-43.18111,-22.89542],[-43.19065,-22.89215],[-43.19605,-22.8921],[-43.20951,-22.89763],[-43.21029,-22.89772],[-43.20984,-22.90019],[-43.20929,-22.90944],[-43.20525,-22.9081],[-43.20243,-22.90603],[-43.19828,-22.90469],[-43.19791,-22.90567],[-43.19471,-22.90579],[-43.193,-22.91081],[-43.19038,-22.90931],[-43.18605,-22.90791]]]},"properties":{"cisp":4,"aisp":5,"st_area_sh":0.00033380037,"st_length_":0.09713981897,"areakm2":3.8}},
{"type":"Feature","geometry":{"type":"Polygon","coordinates":[[[-43.193,-22.91081],[-43.19471,-22.90579],[-43.19791,-22.90567],[-43.19828,-22.90469],[-43.20243,-22.90603],[-43.20525,-22.9081],[-43.20929,-22.90944],[-43.20959,-22.90947],[-43.20812,-22.91013],[-43.20984,-22.91255],[-43.21008,-22.91582],[-43.21232,-22.91637],[-43.21179,-22.91991],[-43.21481,-22.92186],[-43.21474,-22.9233],[-43.2156,-22.92473],[-43.21797,-22.92609],[-43.2181,-22.92699],[-43.21902,-22.92972],[-43.2204,-22.93213],[-43.21897,-22.93353],[-43.21428,-22.93339],[-43.21593,-22.93416],[-43.21685,-22.93713],[-43.21592,-22.93859],[-43.21452,-22.93875],[-43.21019,-22.93761],[-43.20865,-22.93835],[-43.20693,-22.9383],[-43.20471,-22.93673],[-43.20491,-22.93113],[-43.20281,-22.92997],[-43.20142,-22.93131],[-43.20106,-22.9333],[-43.20005,-22.93346],[-43.19786,-22.93144],[-43.19635,-22.93097],[-43.19712,-22.92883],[-43.19623,-22.92734],[-43.19809,-22.92697],[-43.19795,-22.92559],[-43.19664,-22.9234],[-43.19732,-22.92258],[-43.19676,-22.92096],[-43.19342,-22.92017],[-43.19419,-22.91874],[-43.19373,-22.91555],[-43.19563,-22.91294],[-43.19512,-22.91174],[-43.19362,-22.91144],[-43.193,-22.91081]]]},"properties":{"cisp":6,"aisp":4,"st_area_sh":0.00052778072,"st_length_":0.14905385459,"areakm2":6}},
{"type":"Feature","geometry":{"type":"Polygon","coordinates":[[[-43.19362,-22.91144],[-43.19512,-22.91174],[-43.19563,-22.91294],[-43.19373,-22.91555],[-43.19419,-22.91874],[-43.19342,-22.92017],[-43.19676,-22.92096],[-43.19732,-22.92258],[-43.19664,-22.9234],[-43.19795,-22.92559],[-43.19809,-22.92697],[-43.19623,-22.92734],[-43.19712,-22.92883],[-43.19635,-22.93097],[-43.19786,-22.93144],[-43.20005,-22.93346],[-43.20106,-22.9333],[-43.20142,-22.93131],[-43.20281,-22.92997],[-43.20491,-22.93113],[-43.20471,-22.93673],[-43.20693,-22.9383],[-43.20865,-22.93835],[-43.21019,-22.93761],[-43.21452,-22.93875],[-43.21592,-22.93859],[-43.21685,-22.93713],[-43.21593,-22.93416],[-43.21428,-22.93339],[-43.21831,-22.93441],[-43.21911,-22.94038],[-43.21898,-22.9429],[-43.21713,-22.9482],[-43.21591,-22.94873],[-43.21415,-22.95063],[-43.2135,-22.9522],[-43.21002,-22.95196],[-43.2078,-22.95061],[-43.20287,-22.94939],[-43.20103,-22.94802],[-43.19804,-22.94703],[-43.19638,-22.94503],[-43.19956,-22.94334],[-43.202,-22.94623],[-43.20401,-22.9466],[-43.2053,-22.94463],[-43.20765,-22.94576],[-43.20791,-22.94415],[-43.20684,-22.94329],[-43.20599,-22.94072],[-43.20461,-22.93958],[-43.20196,-22.93886],[-43.19957,-22.93977],[-43.19812,-22.93908],[-43.19897,-22.93621],[-43.19688,-22.93659],[-43.19588,-22.93509],[-43.19892,-22.93443],[-43.19525,-22.93235],[-43.19312,-22.92848],[-43.19123,-22.92751],[-43.18608,-22.92634],[-43.18319,-22.92316],[-43.18022,-22.9224],[-43.18009,-22.91981],[-43.17718,-22.91917],[-43.17717,-22.91787],[-43.1777,-22.91783],[-43.18021,-22.91355],[-43.18577,-22.91502],[-43.18747,-22.91506],[-43.18784,-22.91695],[-43.19009,-22.91578],[-43.18932,-22.9147],[-43.19362,-22.91144]]]},"properties":{"cisp":7,"aisp":5,"st_area_sh":0.00045400587,"st_length_":0.25777318963,"areakm2":5.2}},
{"type":"Feature","geometry":{"type":"Polygon","coordinates":[[[-43.23487,-22.91937],[-43.23713,-22.91694],[-43.23517,-22.91579],[-43.23566,-22.91376],[-43.2372,-22.91386],[-43.23957,-22.91179],[-43.23806,-22.91084],[-43.23872,-22.90886],[-43.24172,-22.90758],[-43.24485,-22.90877],[-43.24773,-22.90812],[-43.25438,-22.91059],[-43.25652,-22.91102],[-43.25818,-22.91042],[-43.25891,-22.9114],[-43.26311,-22.91519],[-43.26803,-22.91711],[-43.26936,-22.917],[-43.2735,-22.91931],[-43.27699,-22.9204],[-43.27875,-22.92126],[-43.27939,-22.92432],[-43.27839,-22.9266],[-43.27855,-22.92803],[-43.28057,-22.93214],[-43.286,-22.93519],[-43.28653,-22.93623],[-43.28549,-22.93803],[-43.28515,-22.9417],[-43.28617,-22.94376],[-43.2835,-22.94138],[-43.27945,-22.93982],[-43.2745,-22.94446],[-43.27236,-22.94357],[-43.26944,-22.93981],[-43.26599,-22.93899],[-43.26285,-22.93943],[-43.26076,-22.93874],[-43.25873,-22.93917],[-43.2579,-22.9376],[-43.25541,-22.9358],[-43.25194,-22.9317],[-43.24976,-22.93016],[-43.24604,-22.92982],[-43.24371,-22.92857],[-43.24522,-22.92598],[-43.24205,-22.92426],[-43.23715,-22.92426],[-43.23629,-22.92361],[-43.23601,-22.92146],[-43.23487,-22.91937]]]},"properties":{"cisp":20,"aisp":6,"st_area_sh":0.00098746273,"st_length_":0.17236888613,"areakm2":11.2}},
{"type":"Feature","geometry":{"type":"Polygon","coordinates":[[[-43.17717,-22.91787],[-43.17718,-22.91917],[-43.18009,-22.91981],[-43.18022,-22.9224],[-43.18319,-22.92316],[-43.18608,-22.92634],[-43.19123,-22.92751],[-43.19312,-22.92848],[-43.19525,-22.93235],[-43.19892,-22.93443],[-43.19588,-22.93509],[-43.19688,-22.93659],[-43.19897,-22.93621],[-43.19812,-22.93908],[-43.19957,-22.93977],[-43.20196,-22.93886],[-43.20461,-22.93958],[-43.20599,-22.94072],[-43.20684,-22.94329],[-43.20791,-22.94415],[-43.20765,-22.94576],[-43.2053,-22.94463],[-43.20401,-22.9466],[-43.202,-22.94623],[-43.19956,-22.94334],[-43.19638,-22.94503],[-43.19334,-22.94628],[-43.19144,-22.9459],[-43.1891,-22.94426],[-43.18975,-22.94138],[-43.18816,-22.93909],[-43.18719,-22.94056],[-43.18519,-22.94057],[-43.18134,-22.93889],[-43.17648,-22.94108],[-43.17671,-22.94365],[-43.17408,-22.94414],[-43.17099,-22.94181],[-43.16864,-22.93879],[-43.16848,-22.93712],[-43.16943,-22.93568],[-43.17107,-22.93514],[-43.17106,-22.93074],[-43.17029,-22.92751],[-43.16757,-22.9225],[-43.16796,-22.91888],[-43.16914,-22.91868],[-43.17037,-22.9199],[-43.17224,-22.91928],[-43.17256,-22.91617],[-43.17038,-22.91432],[-43.16851,-22.91435],[-43.16828,-22.91074],[-43.17207,-22.91152],[-43.17423,-22.91371],[-43.1764,-22.91414],[-43.17717,-22.91787]]]},"properties":{"cisp":9,"aisp":2,"st_area_sh":0.00060327865,"st_length_":0.20407068023,"areakm2":6.9}},
{"type":"Feature","geometry":{"type":"Polygon","coordinates":[[[-43.19726,-22.96274],[-43.19368,-22.96131],[-43.19133,-22.96246],[-43.18787,-22.96326],[-43.18605,-22.96291],[-43.1846,-22.9616],[-43.18189,-22.96096],[-43.17862,-22.96114],[-43.17631,-22.95966],[-43.17314,-22.95882],[-43.1725,-22.95786],[-43.16957,-22.95733],[-43.1672,-22.95882],[-43.1633,-22.95916],[-43.16203,-22.95998],[-43.16178,-22.96155],[-43.16025,-22.96156],[-43.15922,-22.95891],[-43.16114,-22.95715],[-43.16251,-22.95743],[-43.16432,-22.95632],[-43.16418,-22.95442],[-43.16179,-22.95354],[-43.1567,-22.9531],[-43.15394,-22.95208],[-43.1502,-22.95081],[-43.15077,-22.94929],[-43.15213,-22.94817],[-43.15476,-22.9473],[-43.15592,-22.94341],[-43.15435,-22.94181],[-43.15222,-22.94185],[-43.15098,-22.9405],[-43.15346,-22.93865],[-43.15765,-22.94116],[-43.1576,-22.94322],[-43.15851,-22.94365],[-43.16192,-22.94343],[-43.16372,-22.94575],[-43.16303,-22.94733],[-43.16492,-22.94776],[-43.16766,-22.94982],[-43.16992,-22.95234],[-43.17665,-22.94961],[-43.17769,-22.94886],[-43.17974,-22.94871],[-43.18043,-22.94704],[-43.18001,-22.94475],[-43.17846,-22.94284],[-43.17671,-22.94365],[-43.17648,-22.94108],[-43.18134,-22.93889],[-43.18519,-22.94057],[-43.18719,-22.94056],[-43.18816,-22.93909],[-43.18975,-22.94138],[-43.1891,-22.94426],[-43.19144,-22.9459],[-43.19334,-22.94628],[-43.19638,-22.94503],[-43.19804,-22.94703],[-43.20103,-22.94802],[-43.20287,-22.94939],[-43.2078,-22.95061],[-43.21002,-22.95196],[-43.20423,-22.95313],[-43.20197,-22.95466],[-43.20414,-22.9558],[-43.20511,-22.95654],[-43.20258,-22.96029],[-43.20078,-22.96065],[-43.20051,-22.96188],[-43.19726,-22.96274]]]},"properties":{"cisp":10,"aisp":2,"st_area_sh":0.00071951191,"st_length_":0.24022952636,"areakm2":8.2}},
{"type":"Feature","geometry":{"type":"MultiPolygon","coordinates":[[[[-43.19693,-22.96662],[-43.1934,-22.96723],[-43.19189,-22.96644],[-43.18914,-22.96959],[-43.18463,-22.97416],[-43.18306,-22.97249],[-43.18017,-22.97031],[-43.17649,-22.96806],[-43.17186,-22.9662],[-43.16761,-22.96395],[-43.16495,-22.9633],[-43.16466,-22.96434],[-43.16252,-22.96532],[-43.15937,-22.96433],[-43.1588,-22.96255],[-43.16025,-22.96156],[-43.16178,-22.96155],[-43.16203,-22.95998],[-43.1633,-22.95916],[-43.1672,-22.95882],[-43.16957,-22.95733],[-43.1725,-22.95786],[-43.17314,-22.95882],[-43.17631,-22.95966],[-43.17862,-22.96114],[-43.18189,-22.96096],[-43.1846,-22.9616],[-43.18605,-22.96291],[-43.18787,-22.96326],[-43.19133,-22.96246],[-43.19368,-22.96131],[-43.19726,-22.96274],[-43.19693,-22.96662]]],[[[-43.14742,-22.96178],[-43.14961,-22.96206],[-43.15085,-22.96338],[-43.15072,-22.96477],[-43.14943,-22.96509],[-43.1479,-22.96417],[-43.14742,-22.96178]]]]},"properties":{"cisp":12,"aisp":19,"st_area_sh":0.00028016817,"st_length_":0.11670541991,"areakm2":3.2}},
{"type":"Feature","geometry":{"type":"Polygon","coordinates":[[[-43.23814,-22.90849],[-43.23872,-22.90886],[-43.23806,-22.91084],[-43.23957,-22.91179],[-43.2372,-22.91386],[-43.23566,-22.91376],[-43.23517,-22.91579],[-43.23713,-22.91694],[-43.23487,-22.91937],[-43.23308,-22.91936],[-43.22945,-22.91614],[-43.22567,-22.91679],[-43.22232,-22.92143],[-43.22101,-22.92186],[-43.2181,-22.92699],[-43.21797,-22.92609],[-43.2156,-22.92473],[-43.21474,-22.9233],[-43.21481,-22.92186],[-43.21179,-22.91991],[-43.21232,-22.91637],[-43.21008,-22.91582],[-43.20984,-22.91255],[-43.20812,-22.91013],[-43.20959,-22.90947],[-43.20974,-22.90687],[-43.2178,-22.9076],[-43.21987,-22.90996],[-43.2244,-22.90965],[-43.22628,-22.90997],[-43.23449,-22.90885],[-43.23629,-22.90911],[-43.23814,-22.90849]]]},"properties":{"cisp":18,"aisp":6,"st_area_sh":0.00030821431,"st_length_":0.11514422608,"areakm2":3.5}},
{"type":"Feature","geometry":{"type":"Polygon","coordinates":[[[-43.2329,-22.86913],[-43.23288,-22.86654],[-43.23349,-22.86378],[-43.23537,-22.86298],[-43.23677,-22.86143],[-43.23798,-22.8553],[-43.23986,-22.85133],[-43.24021,-22.84983],[-43.24249,-22.84618],[-43.24315,-22.84289],[-43.24533,-22.84044],[-43.24704,-22.84019],[-43.25153,-22.83848],[-43.25476,-22.83659],[-43.25624,-22.83785],[-43.25455,-22.83902],[-43.25736,-22.84575],[-43.25877,-22.84583],[-43.26315,-22.85065],[-43.26311,-22.85261],[-43.2668,-22.85623],[-43.26605,-22.85751],[-43.26313,-22.85617],[-43.26216,-22.85799],[-43.26459,-22.85913],[-43.26729,-22.85968],[-43.26769,-22.86191],[-43.26512,-22.86163],[-43.26265,-22.86263],[-43.25977,-22.86188],[-43.25815,-22.86325],[-43.25737,-22.86556],[-43.25821,-22.86669],[-43.2645,-22.86588],[-43.26568,-22.86788],[-43.26791,-22.86893],[-43.26805,-22.86886],[-43.26835,-22.87221],[-43.26569,-22.87485],[-43.26589,-22.87616],[-43.26427,-22.87807],[-43.2625,-22.87804],[-43.26056,-22.87876],[-43.25937,-22.87994],[-43.25694,-22.8811],[-43.25452,-22.88259],[-43.25151,-22.88628],[-43.24988,-22.88743],[-43.24854,-22.88988],[-43.24709,-22.89013],[-43.24522,-22.89503],[-43.2454,-22.89626],[-43.2439,-22.89755],[-43.24192,-22.89797],[-43.24129,-22.89979],[-43.23667,-22.90002],[-43.23671,-22.89657],[-43.23304,-22.897],[-43.23309,-22.89445],[-43.23261,-22.89138],[-43.23362,-22.88965],[-43.23081,-22.88736],[-43.23259,-22.88704],[-43.23405,-22.88595],[-43.23924,-22.8799],[-43.23533,-22.87536],[-43.2329,-22.86913]]]},"properties":{"cisp":21,"aisp":22,"st_area_sh":0.00130000883,"st_length_":0.23077806801,"areakm2":14.8}},
{"type":"Feature","geometry":{"type":"Polygon","coordinates":[[[-43.28866,-22.8829],[-43.28659,-22.88115],[-43.28876,-22.87931],[-43.28967,-22.87614],[-43.2905,-22.87676],[-43.29591,-22.87132],[-43.29761,-22.87247],[-43.3008,-22.87055],[-43.30353,-22.87332],[-43.3036,-22.87659],[-43.30882,-22.8753],[-43.31009,-22.87518],[-43.31076,-22.87785],[-43.31352,-22.88004],[-43.312,-22.88162],[-43.31076,-22.88519],[-43.31301,-22.88861],[-43.31466,-22.89253],[-43.31678,-22.89447],[-43.31702,-22.89708],[-43.31859,-22.89872],[-43.32135,-22.89923],[-43.32355,-22.90144],[-43.32443,-22.90405],[-43.32617,-22.90487],[-43.32657,-22.90662],[-43.32504,-22.90949],[-43.32309,-22.91072],[-43.31937,-22.90869],[-43.31621,-22.90783],[-43.31517,-22.9044],[-43.31087,-22.90555],[-43.30999,-22.90295],[-43.30335,-22.90463],[-43.30072,-22.89648],[-43.30016,-22.8954],[-43.29424,-22.89517],[-43.29132,-22.89553],[-43.28669,-22.89678],[-43.28774,-22.89174],[-43.28783,-22.88802],[-43.28716,-22.88715],[-43.29004,-22.88559],[-43.29078,-22.88419],[-43.28866,-22.8829]]]},"properties":{"cisp":24,"aisp":3,"st_area_sh":0.00074165756,"st_length_":0.15342251179,"areakm2":8.4}},
{"type":"Feature","geometry":{"type":"Polygon","coordinates":[[[-43.24129,-22.89979],[-43.24192,-22.89797],[-43.2439,-22.89755],[-43.2454,-22.89626],[-43.24522,-22.89503],[-43.24709,-22.89013],[-43.24854,-22.88988],[-43.24988,-22.88743],[-43.25151,-22.88628],[-43.25452,-22.88259],[-43.25694,-22.8811],[-43.26169,-22.88477],[-43.26431,-22.88609],[-43.26499,-22.89002],[-43.26382,-22.89037],[-43.26354,-22.89044],[-43.26316,-22.89259],[-43.26493,-22.89312],[-43.26726,-22.89716],[-43.27126,-22.90025],[-43.27212,-22.90323],[-43.27377,-22.90428],[-43.27534,-22.90375],[-43.27433,-22.90452],[-43.27146,-22.90391],[-43.27047,-22.90584],[-43.27228,-22.90791],[-43.27614,-22.90927],[-43.27528,-22.91321],[-43.27735,-22.914],[-43.27699,-22.9204],[-43.2735,-22.91931],[-43.26936,-22.917],[-43.26803,-22.91711],[-43.26311,-22.91519],[-43.25891,-22.9114],[-43.25818,-22.91042],[-43.25652,-22.91102],[-43.25438,-22.91059],[-43.24773,-22.90812],[-43.24485,-22.90877],[-43.24172,-22.90758],[-43.23872,-22.90886],[-43.23814,-22.90849],[-43.23724,-22.90779],[-43.24114,-22.90438],[-43.24129,-22.89979]]]},"properties":{"cisp":25,"aisp":3,"st_area_sh":0.00072825691,"st_length_":0.16139568927,"areakm2":8.3}},
{"type":"Feature","geometry":{"type":"Polygon","coordinates":[[[-43.27875,-22.92126],[-43.27699,-22.9204],[-43.27735,-22.914],[-43.27528,-22.91321],[-43.27614,-22.90927],[-43.27228,-22.90791],[-43.27047,-22.90584],[-43.27146,-22.90391],[-43.27433,-22.90452],[-43.27534,-22.90375],[-43.27739,-22.90215],[-43.28093,-22.89871],[-43.28327,-22.89743],[-43.28669,-22.89678],[-43.29132,-22.89553],[-43.29424,-22.89517],[-43.30016,-22.8954],[-43.30072,-22.89648],[-43.30335,-22.90463],[-43.30999,-22.90295],[-43.31087,-22.90555],[-43.31517,-22.9044],[-43.31621,-22.90783],[-43.31937,-22.90869],[-43.32309,-22.91072],[-43.32258,-22.91299],[-43.32079,-22.91412],[-43.32053,-22.91708],[-43.31659,-22.9179],[-43.31491,-22.91675],[-43.31072,-22.9165],[-43.3088,-22.91696],[-43.30356,-22.91937],[-43.30094,-22.92101],[-43.29472,-22.92143],[-43.29276,-22.92124],[-43.29112,-22.92192],[-43.28435,-22.91854],[-43.28288,-22.91907],[-43.28238,-22.92057],[-43.27875,-22.92126]]]},"properties":{"cisp":26,"aisp":3,"st_area_sh":0.00086411165,"st_length_":0.1461927651,"areakm2":9.8}},
{"type":"Feature","geometry":{"type":"Polygon","coordinates":[[[-43.29353,-22.85492],[-43.29714,-22.85307],[-43.29845,-22.85279],[-43.29958,-22.85092],[-43.30106,-22.85018],[-43.30058,-22.84898],[-43.30249,-22.84595],[-43.30454,-22.84705],[-43.3067,-22.84487],[-43.30433,-22.84289],[-43.30187,-22.84163],[-43.30329,-22.83922],[-43.30459,-22.84001],[-43.30698,-22.83613],[-43.30885,-22.83682],[-43.31101,-22.83891],[-43.31478,-22.83744],[-43.31699,-22.83728],[-43.31859,-22.8349],[-43.31885,-22.8334],[-43.31494,-22.83228],[-43.3092,-22.83329],[-43.30788,-22.83189],[-43.31294,-22.83027],[-43.31364,-22.82571],[-43.31657,-22.81977],[-43.31939,-22.81897],[-43.33088,-22.81265],[-43.33231,-22.81399],[-43.33285,-22.81823],[-43.3344,-22.81823],[-43.33469,-22.82189],[-43.33423,-22.82489],[-43.33724,-22.82595],[-43.33892,-22.82716],[-43.33936,-22.8284],[-43.34168,-22.83186],[-43.34169,-22.83343],[-43.33877,-22.83978],[-43.33512,-22.84294],[-43.33198,-22.84313],[-43.33083,-22.84396],[-43.33403,-22.84845],[-43.33684,-22.8464],[-43.33759,-22.85236],[-43.3371,-22.856],[-43.33435,-22.85381],[-43.32948,-22.85451],[-43.32565,-22.85386],[-43.32391,-22.85526],[-43.32237,-22.86176],[-43.32056,-22.86435],[-43.31764,-22.86354],[-43.31515,-22.86336],[-43.31443,-22.86134],[-43.31127,-22.86137],[-43.30734,-22.86314],[-43.30713,-22.86171],[-43.30452,-22.86082],[-43.30259,-22.85931],[-43.30103,-22.85731],[-43.29806,-22.85905],[-43.29688,-22.8572],[-43.29353,-22.85492]]]},"properties":{"cisp":27,"aisp":41,"st_area_sh":0.00123984491,"st_length_":0.23034003949,"areakm2":14.1}},
{"type":"Feature","geometry":{"type":"Polygon","coordinates":[[[-43.35054,-22.85981],[-43.35151,-22.85937],[-43.35369,-22.85672],[-43.3628,-22.85519],[-43.3605,-22.85058],[-43.3576,-22.84913],[-43.36036,-22.84677],[-43.36341,-22.84684],[-43.36654,-22.84775],[-43.36758,-22.84744],[-43.37517,-22.85077],[-43.37902,-22.85022],[-43.37765,-22.85398],[-43.38121,-22.8551],[-43.38419,-22.85664],[-43.37975,-22.85845],[-43.37726,-22.85805],[-43.3748,-22.85917],[-43.37823,-22.86552],[-43.37809,-22.86698],[-43.376,-22.86962],[-43.37436,-22.87248],[-43.37295,-22.8758],[-43.37337,-22.87665],[-43.36902,-22.8773],[-43.36728,-22.87723],[-43.36052,-22.87811],[-43.35663,-22.87921],[-43.3565,-22.88328],[-43.34436,-22.88975],[-43.33973,-22.88984],[-43.33988,-22.88505],[-43.34196,-22.88292],[-43.34447,-22.88308],[-43.34834,-22.88271],[-43.34975,-22.8822],[-43.34676,-22.8746],[-43.3446,-22.87221],[-43.35231,-22.86767],[-43.3507,-22.86742],[-43.34893,-22.86522],[-43.34822,-22.86304],[-43.34914,-22.8603],[-43.35054,-22.85981]]]},"properties":{"cisp":30,"aisp":9,"st_area_sh":0.00084320618,"st_length_":0.17700455055,"areakm2":9.6}},
{"type":"Feature","geometry":{"type":"Polygon","coordinates":[[[-43.37236,-22.91462],[-43.36743,-22.91364],[-43.36482,-22.91426],[-43.36305,-22.91352],[-43.3619,-22.91228],[-43.35816,-22.91289],[-43.35639,-22.91271],[-43.35418,-22.91096],[-43.35007,-22.91057],[-43.34688,-22.90949],[-43.34371,-22.90745],[-43.34129,-22.90761],[-43.33902,-22.90673],[-43.33554,-22.90427],[-43.33672,-22.90365],[-43.33894,-22.89979],[-43.33802,-22.8962],[-43.3383,-22.89416],[-43.33995,-22.89253],[-43.33973,-22.88984],[-43.34436,-22.88975],[-43.3565,-22.88328],[-43.35663,-22.87921],[-43.36052,-22.87811],[-43.36728,-22.87723],[-43.36902,-22.8773],[-43.37337,-22.87665],[-43.37396,-22.87667],[-43.37485,-22.88036],[-43.37487,-22.88891],[-43.37602,-22.89206],[-43.37757,-22.89468],[-43.37492,-22.89817],[-43.37469,-22.90117],[-43.37404,-22.90349],[-43.37957,-22.907],[-43.37858,-22.90829],[-43.37838,-22.91054],[-43.37744,-22.91207],[-43.37521,-22.91418],[-43.37236,-22.91462]]]},"properties":{"cisp":28,"aisp":18,"st_area_sh":0.00109516113,"st_length_":0.14610077895,"areakm2":12.4}},
{"type":"Feature","geometry":{"type":"Polygon","coordinates":[[[-43.33724,-22.82595],[-43.34589,-22.82917],[-43.35061,-22.82377],[-43.35171,-22.8229],[-43.35348,-22.82445],[-43.35619,-22.82538],[-43.35837,-22.82823],[-43.35896,-22.82972],[-43.36028,-22.8367],[-43.35797,-22.84297],[-43.35806,-22.84425],[-43.36036,-22.84677],[-43.3576,-22.84913],[-43.3605,-22.85058],[-43.3628,-22.85519],[-43.35369,-22.85672],[-43.35151,-22.85937],[-43.35054,-22.85981],[-43.34833,-22.85863],[-43.3443,-22.85808],[-43.33954,-22.85632],[-43.3371,-22.856],[-43.33759,-22.85236],[-43.33684,-22.8464],[-43.33403,-22.84845],[-43.33083,-22.84396],[-43.33198,-22.84313],[-43.33512,-22.84294],[-43.33877,-22.83978],[-43.34169,-22.83343],[-43.34168,-22.83186],[-43.33936,-22.8284],[-43.33892,-22.82716],[-43.33724,-22.82595]]]},"properties":{"cisp":40,"aisp":9,"st_area_sh":0.00067973668,"st_length_":0.13537415255,"areakm2":7.7}},
{"type":"Feature","geometry":{"type":"Polygon","coordinates":[[[-43.30882,-22.8753],[-43.30849,-22.87336],[-43.31086,-22.87133],[-43.30992,-22.86961],[-43.31515,-22.86336],[-43.31764,-22.86354],[-43.32056,-22.86435],[-43.32237,-22.86176],[-43.32391,-22.85526],[-43.32565,-22.85386],[-43.32948,-22.85451],[-43.33435,-22.85381],[-43.3371,-22.856],[-43.33954,-22.85632],[-43.3443,-22.85808],[-43.34833,-22.85863],[-43.35054,-22.85981],[-43.34914,-22.8603],[-43.34822,-22.86304],[-43.34893,-22.86522],[-43.3507,-22.86742],[-43.35231,-22.86767],[-43.3446,-22.87221],[-43.34676,-22.8746],[-43.34975,-22.8822],[-43.34834,-22.88271],[-43.34447,-22.88308],[-43.34196,-22.88292],[-43.33988,-22.88505],[-43.33973,-22.88984],[-43.33995,-22.89253],[-43.3383,-22.89416],[-43.33802,-22.8962],[-43.33894,-22.89979],[-43.33672,-22.90365],[-43.33554,-22.90427],[-43.33134,-22.90645],[-43.32966,-22.90896],[-43.32872,-22.91279],[-43.32591,-22.91131],[-43.32309,-22.91072],[-43.32504,-22.90949],[-43.32657,-22.90662],[-43.32617,-22.90487],[-43.32443,-22.90405],[-43.32355,-22.90144],[-43.32135,-22.89923],[-43.31859,-22.89872],[-43.31702,-22.89708],[-43.31678,-22.89447],[-43.31466,-22.89253],[-43.31301,-22.88861],[-43.31076,-22.88519],[-43.312,-22.88162],[-43.31352,-22.88004],[-43.31076,-22.87785],[-43.31009,-22.87518],[-43.30882,-22.8753]]]},"properties":{"cisp":29,"aisp":9,"st_area_sh":0.00143779102,"st_length_":0.19893892616,"areakm2":16.3}},
{"type":"Feature","geometry":{"type":"Polygon","coordinates":[[[-43.36036,-22.84677],[-43.3618,-22.84522],[-43.3638,-22.83995],[-43.36596,-22.83813],[-43.36783,-22.83929],[-43.37048,-22.83602],[-43.37732,-22.82812],[-43.39042,-22.81377],[-43.39051,-22.81381],[-43.39533,-22.81538],[-43.40073,-22.81743],[-43.40592,-22.82028],[-43.40794,-22.82114],[-43.41055,-22.82019],[-43.41525,-22.82151],[-43.41707,-22.82415],[-43.41741,-22.82568],[-43.42049,-22.82937],[-43.42205,-22.83257],[-43.42456,-22.83271],[-43.42569,-22.83554],[-43.42912,-22.83751],[-43.43156,-22.83936],[-43.43349,-22.8401],[-43.43512,-22.84184],[-43.43381,-22.84383],[-43.43231,-22.8437],[-43.42862,-22.84666],[-43.42657,-22.84671],[-43.42244,-22.84398],[-43.42213,-22.84325],[-43.41816,-22.84158],[-43.41375,-22.83784],[-43.40958,-22.84231],[-43.40676,-22.84627],[-43.40395,-22.84442],[-43.40268,-22.84515],[-43.39712,-22.84549],[-43.3968,-22.8441],[-43.39814,-22.8418],[-43.39813,-22.84008],[-43.39584,-22.84018],[-43.39486,-22.83922],[-43.38694,-22.83653],[-43.38261,-22.83762],[-43.37986,-22.84623],[-43.37902,-22.85022],[-43.37517,-22.85077],[-43.36758,-22.84744],[-43.36654,-22.84775],[-43.36341,-22.84684],[-43.36036,-22.84677]]]},"properties":{"cisp":31,"aisp":41,"st_area_sh":0.00124833398,"st_length_":0.21961781878,"areakm2":14.2}},
{"type":"Feature","geometry":{"type":"Polygon","coordinates":[[[-43.37957,-22.907],[-43.37404,-22.90349],[-43.37469,-22.90117],[-43.37492,-22.89817],[-43.37757,-22.89468],[-43.37602,-22.89206],[-43.37487,-22.88891],[-43.37485,-22.88036],[-43.37396,-22.87667],[-43.37337,-22.87665],[-43.37295,-22.8758],[-43.37436,-22.87248],[-43.376,-22.86962],[-43.37809,-22.86698],[-43.37823,-22.86552],[-43.3748,-22.85917],[-43.37726,-22.85805],[-43.37975,-22.85845],[-43.38419,-22.85664],[-43.38121,-22.8551],[-43.37765,-22.85398],[-43.37902,-22.85022],[-43.37986,-22.84623],[-43.38261,-22.83762],[-43.38694,-22.83653],[-43.39486,-22.83922],[-43.39584,-22.84018],[-43.39813,-22.84008],[-43.39814,-22.8418],[-43.3968,-22.8441],[-43.39712,-22.84549],[-43.40268,-22.84515],[-43.40395,-22.84442],[-43.40676,-22.84627],[-43.40958,-22.84231],[-43.41375,-22.83784],[-43.41816,-22.84158],[-43.42213,-22.84325],[-43.42244,-22.84398],[-43.42657,-22.84671],[-43.42862,-22.84666],[-43.43231,-22.8437],[-43.43381,-22.84383],[-43.43512,-22.84184],[-43.43964,-22.84224],[-43.45863,-22.84848],[-43.4505,-22.85485],[-43.44996,-22.8565],[-43.44782,-22.85631],[-43.44567,-22.86337],[-43.44793,-22.8652],[-43.44307,-22.86857],[-43.44218,-22.86866],[-43.44182,-22.87497],[-43.44561,-22.87504],[-43.44391,-22.87755],[-43.44003,-22.88203],[-43.44174,-22.8841],[-43.44005,-22.88568],[-43.44361,-22.88924],[-43.44448,-22.88969],[-43.44861,-22.89404],[-43.45045,-22.89632],[-43.45133,-22.89831],[-43.45681,-22.90176],[-43.46149,-22.90423],[-43.46276,-22.9055],[-43.46383,-22.90802],[-43.46751,-22.91148],[-43.46951,-22.91479],[-43.46763,-22.91633],[-43.46658,-22.91563],[-43.46387,-22.91512],[-43.46045,-22.91513],[-43.45517,-22.91474],[-43.45167,-22.91358],[-43.4501,-22.91225],[-43.43997,-22.90913],[-43.43567,-22.90873],[-43.43123,-22.90782],[-43.42902,-22.90988],[-43.4264,-22.91069],[-43.42531,-22.91182],[-43.421,-22.91206],[-43.4206,-22.91302],[-43.41699,-22.91321],[-43.41599,-22.9114],[-43.41976,-22.90939],[-43.4155,-22.90641],[-43.39658,-22.90444],[-43.38911,-22.90324],[-43.38652,-22.90257],[-43.38324,-22.90516],[-43.37957,-22.907]]]},"properties":{"cisp":33,"aisp":14,"st_area_sh":0.0048008622,"st_length_":0.40139475539,"areakm2":54.6}},
{"type":"Feature","geometry":{"type":"Polygon","coordinates":[[[-43.46763,-22.91633],[-43.46951,-22.91479],[-43.46751,-22.91148],[-43.46383,-22.90802],[-43.46276,-22.9055],[-43.46149,-22.90423],[-43.45681,-22.90176],[-43.45133,-22.89831],[-43.45045,-22.89632],[-43.44861,-22.89404],[-43.44448,-22.88969],[-43.44361,-22.88924],[-43.44005,-22.88568],[-43.44174,-22.8841],[-43.44003,-22.88203],[-43.44391,-22.87755],[-43.44561,-22.87504],[-43.44182,-22.87497],[-43.44218,-22.86866],[-43.44307,-22.86857],[-43.44793,-22.8652],[-43.44567,-22.86337],[-43.44782,-22.85631],[-43.44996,-22.8565],[-43.4505,-22.85485],[-43.45863,-22.84848],[-43.46105,-22.83475],[-43.46165,-22.83069],[-43.46231,-22.82235],[-43.46445,-22.82166],[-43.465,-22.81811],[-43.46616,-22.81725],[-43.46946,-22.818],[-43.47757,-22.81835],[-43.48006,-22.81684],[-43.48317,-22.81753],[-43.48915,-22.81734],[-43.49008,-22.81552],[-43.49157,-22.81475],[-43.49505,-22.81452],[-43.49622,-22.81374],[-43.49834,-22.81542],[-43.49911,-22.81801],[-43.50186,-22.81933],[-43.5056,-22.81932],[-43.50738,-22.82001],[-43.50839,-22.82125],[-43.51105,-22.81908],[-43.51242,-22.81888],[-43.51445,-22.82028],[-43.51607,-22.82032],[-43.52016,-22.82315],[-43.52177,-22.82265],[-43.52504,-22.82451],[-43.52687,-22.82732],[-43.52702,-22.83105],[-43.52469,-22.8363],[-43.52326,-22.83723],[-43.52078,-22.83992],[-43.51967,-22.84336],[-43.51833,-22.84457],[-43.52035,-22.84654],[-43.51511,-22.85227],[-43.51441,-22.86303],[-43.51231,-22.86342],[-43.51101,-22.86586],[-43.50751,-22.87085],[-43.50441,-22.87314],[-43.50519,-22.87506],[-43.5044,-22.87625],[-43.50808,-22.87748],[-43.507,-22.87988],[-43.50272,-22.89212],[-43.50654,-22.89301],[-43.50795,-22.89434],[-43.51283,-22.89754],[-43.51141,-22.89839],[-43.50761,-22.89948],[-43.50633,-22.90123],[-43.50236,-22.90498],[-43.50103,-22.9042],[-43.49929,-22.90503],[-43.49805,-22.90776],[-43.49435,-22.90919],[-43.49332,-22.91339],[-43.49651,-22.91715],[-43.49646,-22.91917],[-43.4956,-22.92051],[-43.49528,-22.92285],[-43.4911,-22.92428],[-43.48871,-22.92674],[-43.48623,-22.92667],[-43.4845,-22.92559],[-43.48287,-22.92557],[-43.47973,-22.92733],[-43.47284,-22.93179],[-43.47235,-22.92793],[-43.47122,-22.9264],[-43.46752,-22.9232],[-43.46857,-22.92209],[-43.46917,-22.91999],[-43.46871,-22.91716],[-43.46763,-22.91633]]]},"properties":{"cisp":34,"aisp":14,"st_area_sh":0.00596772237,"st_length_":0.38808693818,"areakm2":67.8}},
{"type":"Feature","geometry":{"type":"MultiPolygon","coordinates":[[[[-43.1717,-22.77666],[-43.17334,-22.77655],[-43.17554,-22.77743],[-43.17713,-22.77928],[-43.17638,-22.78036],[-43.1774,-22.78208],[-43.17937,-22.78349],[-43.18201,-22.78345],[-43.18314,-22.7817],[-43.18457,-22.78382],[-43.18596,-22.78481],[-43.18798,-22.7835],[-43.18943,-22.78323],[-43.19033,-22.78785],[-43.18833,-22.78848],[-43.18906,-22.79092],[-43.18911,-22.79315],[-43.18842,-22.7945],[-43.18917,-22.79544],[-43.19285,-22.79443],[-43.19452,-22.79492],[-43.19537,-22.79404],[-43.19941,-22.79365],[-43.20201,-22.79418],[-43.2041,-22.7953],[-43.20583,-22.79524],[-43.20837,-22.79404],[-43.21292,-22.78915],[-43.21457,-22.78841],[-43.21717,-22.7863],[-43.21934,-22.78511],[-43.22329,-22.78402],[-43.22528,-22.78421],[-43.22729,-22.78374],[-43.22844,-22.78523],[-43.22881,-22.78814],[-43.23007,-22.78845],[-43.23381,-22.79065],[-43.23622,-22.79169],[-43.23764,-22.79106],[-43.24056,-22.79111],[-43.24217,-22.79177],[-43.24483,-22.79189],[-43.2483,-22.79353],[-43.24942,-22.79534],[-43.25212,-22.79706],[-43.25418,-22.79757],[-43.25642,-22.7972],[-43.25963,-22.80081],[-43.26123,-22.8031],[-43.26235,-22.80621],[-43.2643,-22.80831],[-43.2659,-22.81168],[-43.26548,-22.81319],[-43.26175,-22.81626],[-43.26123,-22.81771],[-43.25922,-22.81925],[-43.25527,-22.82154],[-43.25005,-22.82391],[-43.25056,-22.82557],[-43.2518,-22.82605],[-43.25197,-22.82755],[-43.24845,-22.82908],[-43.24848,-22.83031],[-43.2471,-22.83145],[-43.24247,-22.83325],[-43.24206,-22.83379],[-43.23916,-22.83382],[-43.23709,-22.83206],[-43.2351,-22.82898],[-43.23136,-22.82523],[-43.22988,-22.82304],[-43.22801,-22.82145],[-43.22482,-22.81974],[-43.2227,-22.81916],[-43.22092,-22.81947],[-43.21665,-22.81721],[-43.21476,-22.81782],[-43.21272,-22.81635],[-43.20977,-22.81566],[-43.20839,-22.81623],[-43.20907,-22.81837],[-43.20667,-22.81849],[-43.2063,-22.81944],[-43.20066,-22.81976],[-43.19984,-22.81926],[-43.19622,-22.81888],[-43.19312,-22.81945],[-43.18985,-22.82162],[-43.18642,-22.8292],[-43.18439,-22.83059],[-43.18506,-22.83308],[-43.18026,-22.83131],[-43.18034,-22.83045],[-43.17832,-22.82943],[-43.17739,-22.82784],[-43.17583,-22.82711],[-43.17675,-22.82525],[-43.17595,-22.8239],[-43.17438,-22.82401],[-43.17272,-22.8252],[-43.17315,-22.82879],[-43.17469,-22.82928],[-43.17368,-22.83118],[-43.1702,-22.83125],[-43.16858,-22.82848],[-43.16824,-22.82478],[-43.16383,-22.82237],[-43.16506,-22.82032],[-43.16984,-22.82173],[-43.17445,-22.82025],[-43.175,-22.81815],[-43.17606,-22.81684],[-43.17644,-22.8138],[-43.17497,-22.81252],[-43.17718,-22.81085],[-43.17742,-22.80597],[-43.17839,-22.8025],[-43.1778,-22.80159],[-43.17541,-22.80138],[-43.17383,-22.79899],[-43.17199,-22.79778],[-43.17231,-22.79609],[-43.16918,-22.7931],[-43.16547,-22.79101],[-43.16038,-22.78915],[-43.15641,-22.78624],[-43.15562,-22.7839],[-43.157,-22.7811],[-43.15631,-22.77955],[-43.15921,-22.77816],[-43.16249,-22.77813],[-43.1642,-22.77711],[-43.16687,-22.77757],[-43.16662,-22.77915],[-43.16933,-22.78115],[-43.16913,-22.78304],[-43.17115,-22.78227],[-43.17117,-22.78109],[-43.17323,-22.77919],[-43.17322,-22.77818],[-43.1717,-22.77666]]],[[[-43.22883,-22.83736],[-43.23083,-22.83639],[-43.23149,-22.83804],[-43.23611,-22.83912],[-43.23868,-22.83922],[-43.23927,-22.83843],[-43.24234,-22.83706],[-43.24317,-22.83921],[-43.24093,-22.84055],[-43.23984,-22.84264],[-43.24099,-22.84652],[-43.23898,-22.84872],[-43.23923,-22.84945],[-43.23634,-22.85395],[-43.23529,-22.86042],[-43.23594,-22.86179],[-43.234,-22.86209],[-43.23231,-22.86342],[-43.232,-22.86602],[-43.22897,-22.86628],[-43.22577,-22.86769],[-43.22148,-22.86691],[-43.21974,-22.86962],[-43.2155,-22.87046],[-43.21455,-22.86973],[-43.21396,-22.86778],[-43.21511,-22.86373],[-43.21698,-22.86209],[-43.21828,-22.86342],[-43.21893,-22.86134],[-43.21377,-22.85983],[-43.21272,-22.86067],[-43.2103,-22.85995],[-43.20859,-22.86025],[-43.20822,-22.85859],[-43.20972,-22.85761],[-43.21238,-22.85856],[-43.21529,-22.85718],[-43.21771,-22.8588],[-43.22121,-22.85898],[-43.2238,-22.85821],[-43.22652,-22.85622],[-43.2306,-22.85141],[-43.23254,-22.84752],[-43.23143,-22.84403],[-43.22634,-22.84138],[-43.22445,-22.84157],[-43.22273,-22.84265],[-43.22232,-22.84415],[-43.2239,-22.84489],[-43.22401,-22.84656],[-43.22325,-22.84781],[-43.2216,-22.84806],[-43.2208,-22.84563],[-43.21976,-22.84502],[-43.22159,-22.84327],[-43.22366,-22.83928],[-43.22557,-22.83951],[-43.22759,-22.83743],[-43.22883,-22.83736]]],[[[-43.15998,-22.77003],[-43.16117,-22.77039],[-43.15989,-22.77322],[-43.15981,-22.77544],[-43.15785,-22.77569],[-43.15325,-22.77515],[-43.15192,-22.77391],[-43.15229,-22.77274],[-43.15581,-22.77326],[-43.1571,-22.77279],[-43.15998,-22.77003]]],[[[-43.16261,-22.81117],[-43.16502,-22.81214],[-43.16478,-22.81381],[-43.16126,-22.81501],[-43.16156,-22.81156],[-43.16261,-22.81117]]],[[[-43.25837,-22.82454],[-43.25988,-22.82504],[-43.25918,-22.82664],[-43.25745,-22.82591],[-43.25837,-22.82454]]],[[[-43.17293,-22.83845],[-43.17447,-22.83683],[-43.17574,-22.83719],[-43.17451,-22.83896],[-43.17293,-22.83845]]]]},"properties":{"cisp":37,"aisp":17,"st_area_sh":0.00364321768,"st_length_":0.75689040395,"areakm2":41.4}},
{"type":"Feature","geometry":{"type":"Polygon","coordinates":[[[-43.27291,-22.81042],[-43.27236,-22.80944],[-43.27218,-22.80552],[-43.27256,-22.80331],[-43.27673,-22.80376],[-43.279,-22.80766],[-43.28549,-22.808],[-43.28756,-22.80873],[-43.28827,-22.81033],[-43.28983,-22.81072],[-43.2928,-22.80892],[-43.29502,-22.80678],[-43.29622,-22.80638],[-43.29871,-22.8068],[-43.30022,-22.80415],[-43.30281,-22.80375],[-43.30444,-22.8009],[-43.3078,-22.79985],[-43.31088,-22.79986],[-43.31941,-22.80154],[-43.32491,-22.80118],[-43.32771,-22.80221],[-43.32785,-22.80407],[-43.32917,-22.8061],[-43.33067,-22.80739],[-43.33143,-22.80952],[-43.33048,-22.81105],[-43.33088,-22.81265],[-43.31939,-22.81897],[-43.31657,-22.81977],[-43.31364,-22.82571],[-43.31294,-22.83027],[-43.30788,-22.83189],[-43.3092,-22.83329],[-43.31494,-22.83228],[-43.31885,-22.8334],[-43.31859,-22.8349],[-43.31699,-22.83728],[-43.31478,-22.83744],[-43.31101,-22.83891],[-43.30885,-22.83682],[-43.30698,-22.83613],[-43.30459,-22.84001],[-43.30329,-22.83922],[-43.30187,-22.84163],[-43.30433,-22.84289],[-43.3067,-22.84487],[-43.30454,-22.84705],[-43.30249,-22.84595],[-43.30058,-22.84898],[-43.30106,-22.85018],[-43.29958,-22.85092],[-43.29845,-22.85279],[-43.29714,-22.85307],[-43.29353,-22.85492],[-43.29208,-22.85256],[-43.29588,-22.85031],[-43.29653,-22.84941],[-43.29663,-22.8467],[-43.29742,-22.84583],[-43.29457,-22.84457],[-43.28642,-22.83999],[-43.28441,-22.837],[-43.28898,-22.83206],[-43.29236,-22.83086],[-43.2941,-22.82818],[-43.28897,-22.82466],[-43.29006,-22.82208],[-43.28743,-22.82093],[-43.28148,-22.81427],[-43.28019,-22.81328],[-43.27291,-22.81042]]]},"properties":{"cisp":38,"aisp":16,"st_area_sh":0.00138901612,"st_length_":0.26233190885,"areakm2":15.8}},
{"type":"Feature","geometry":{"type":"Polygon","coordinates":[[[-43.33088,-22.81265],[-43.33048,-22.81105],[-43.33143,-22.80952],[-43.33067,-22.80739],[-43.32917,-22.8061],[-43.32785,-22.80407],[-43.32771,-22.80221],[-43.33087,-22.80272],[-43.34557,-22.8035],[-43.34834,-22.80374],[-43.34947,-22.80319],[-43.3541,-22.8024],[-43.35955,-22.80302],[-43.36156,-22.80446],[-43.3648,-22.80409],[-43.36744,-22.80495],[-43.37007,-22.8053],[-43.37224,-22.80716],[-43.37429,-22.80755],[-43.3758,-22.8086],[-43.37708,-22.81088],[-43.37965,-22.81062],[-43.38305,-22.81201],[-43.38492,-22.81402],[-43.38789,-22.81476],[-43.39042,-22.81377],[-43.37732,-22.82812],[-43.37048,-22.83602],[-43.36783,-22.83929],[-43.36596,-22.83813],[-43.3638,-22.83995],[-43.3618,-22.84522],[-43.36036,-22.84677],[-43.35806,-22.84425],[-43.35797,-22.84297],[-43.36028,-22.8367],[-43.35896,-22.82972],[-43.35837,-22.82823],[-43.35619,-22.82538],[-43.35348,-22.82445],[-43.35171,-22.8229],[-43.35061,-22.82377],[-43.34589,-22.82917],[-43.33724,-22.82595],[-43.33423,-22.82489],[-43.33469,-22.82189],[-43.3344,-22.81823],[-43.33285,-22.81823],[-43.33231,-22.81399],[-43.33088,-22.81265]]]},"properties":{"cisp":39,"aisp":41,"st_area_sh":0.00131714592,"st_length_":0.1959075402,"areakm2":15}},
{"type":"Feature","geometry":{"type":"Polygon","coordinates":[[[-43.32053,-22.91708],[-43.32079,-22.91412],[-43.32258,-22.91299],[-43.32309,-22.91072],[-43.32591,-22.91131],[-43.32872,-22.91279],[-43.32966,-22.90896],[-43.33134,-22.90645],[-43.33554,-22.90427],[-43.33902,-22.90673],[-43.34129,-22.90761],[-43.34371,-22.90745],[-43.34688,-22.90949],[-43.35007,-22.91057],[-43.35418,-22.91096],[-43.35639,-22.91271],[-43.35816,-22.91289],[-43.3619,-22.91228],[-43.36305,-22.91352],[-43.36482,-22.91426],[-43.36743,-22.91364],[-43.37236,-22.91462],[-43.37111,-22.91765],[-43.36888,-22.91845],[-43.36458,-22.91821],[-43.36418,-22.91953],[-43.36515,-22.92137],[-43.3648,-22.92435],[-43.36415,-22.92584],[-43.35909,-22.9275],[-43.36046,-22.92832],[-43.36306,-22.9326],[-43.36369,-22.93566],[-43.3623,-22.93734],[-43.36044,-22.93748],[-43.3613,-22.94367],[-43.35912,-22.94388],[-43.35849,-22.94584],[-43.35998,-22.94699],[-43.3567,-22.95007],[-43.35486,-22.95061],[-43.35558,-22.95188],[-43.35379,-22.95274],[-43.35198,-22.95273],[-43.34936,-22.95449],[-43.34831,-22.95379],[-43.34485,-22.95289],[-43.34159,-22.95042],[-43.33977,-22.94728],[-43.33735,-22.94666],[-43.33536,-22.94432],[-43.33151,-22.94313],[-43.32528,-22.94021],[-43.32534,-22.93636],[-43.32834,-22.93409],[-43.32413,-22.93057],[-43.322,-22.92985],[-43.32566,-22.9276],[-43.32663,-22.92295],[-43.32624,-22.92206],[-43.32358,-22.91937],[-43.32053,-22.91708]]]},"properties":{"cisp":41,"aisp":18,"st_area_sh":0.00150416562,"st_length_":0.20648858893,"areakm2":17.1}},
{"type":"Feature","geometry":{"type":"Polygon","coordinates":[[[-43.29208,-22.85256],[-43.29353,-22.85492],[-43.29688,-22.8572],[-43.29806,-22.85905],[-43.30103,-22.85731],[-43.30259,-22.85931],[-43.30452,-22.86082],[-43.30713,-22.86171],[-43.30734,-22.86314],[-43.31127,-22.86137],[-43.31443,-22.86134],[-43.31515,-22.86336],[-43.30992,-22.86961],[-43.31086,-22.87133],[-43.30849,-22.87336],[-43.30882,-22.8753],[-43.3036,-22.87659],[-43.30353,-22.87332],[-43.3008,-22.87055],[-43.29761,-22.87247],[-43.29591,-22.87132],[-43.2905,-22.87676],[-43.28967,-22.87614],[-43.28876,-22.87931],[-43.28659,-22.88115],[-43.28866,-22.8829],[-43.28608,-22.88286],[-43.27889,-22.88098],[-43.27994,-22.88341],[-43.27793,-22.8848],[-43.27689,-22.88392],[-43.27504,-22.8867],[-43.27232,-22.8848],[-43.27006,-22.88631],[-43.26848,-22.88585],[-43.26815,-22.88725],[-43.26579,-22.886],[-43.26431,-22.88609],[-43.26169,-22.88477],[-43.25694,-22.8811],[-43.25937,-22.87994],[-43.26056,-22.87876],[-43.2625,-22.87804],[-43.26427,-22.87807],[-43.26589,-22.87616],[-43.26569,-22.87485],[-43.26835,-22.87221],[-43.26805,-22.86886],[-43.26805,-22.86882],[-43.26988,-22.86709],[-43.27166,-22.86712],[-43.27418,-22.86794],[-43.27613,-22.86984],[-43.27681,-22.87196],[-43.27872,-22.87352],[-43.28028,-22.87313],[-43.28286,-22.86979],[-43.28398,-22.87006],[-43.28541,-22.86766],[-43.28834,-22.86631],[-43.2886,-22.86184],[-43.28914,-22.86051],[-43.28803,-22.85837],[-43.2894,-22.85706],[-43.28767,-22.85502],[-43.29208,-22.85256]]]},"properties":{"cisp":44,"aisp":3,"st_area_sh":0.00074467909,"st_length_":0.20011111041,"areakm2":8.5}}
]}